[
	{
		"postcode" : ["79000"],
		"name" : "Estuari Garden"
	},
	{
		"postcode" : ["79050"],
		"name" : "Lebuh Kota Iskandar"
	},
	{
		"postcode" : ["79100"],
		"name" : "Horizon Hills"
	},
	{
		"postcode" : ["79150"],
		"name" : "Taman Nusa Bestari 2"
	},
	{
		"postcode" : ["79200"],
		"name" : "Kota Ilmu Educity@Iskandar"
	},
	{
		"postcode" : ["79250"],
		"name" : "Bandar Medini Iskandar Malaysia"
	},
	{
		"postcode" : ["79502"],
		"name" : "YAB Menteri Besar"
	},
	{
		"postcode" : ["79503"],
		"name" : "Setiausaha Kerajaan Negeri"
	},
	{
		"postcode" : ["79504"],
		"name" : "Biro Bantuan Guaman"
	},
	{
		"postcode" : ["79505"],
		"name" : "Biro Pengaduan Awam"
	},
	{
		"postcode" : ["79511"],
		"name" : "Badan Kawal Selia Air Negeri Johor (BAKAJ)"
	},
	{
		"postcode" : ["79513"],
		"name" : "Unit Media Dan Komunikasi"
	},
	{
		"postcode" : ["79514"],
		"name" : "Jabatan Perangkaan"
	},
	{
		"postcode" : ["79517"],
		"name" : "Jabatan Perpaduan Negara"
	},
	{
		"postcode" : ["79518"],
		"name" : "Ketua Audit Negeri Johor"
	},
	{
		"postcode" : ["79520"],
		"name" : "Suruhanjaya Perkhidmatan Awam"
	},
	{
		"postcode" : ["79521"],
		"name" : "Pusat Pelaburan Johor"
	},
	{
		"postcode" : ["79523"],
		"name" : "Sains Teknologi Dan ICT Negeri Johor"
	},
	{
		"postcode" : ["79532"],
		"name" : "Jabatan Sumber Manusia"
	},
	{
		"postcode" : ["79538"],
		"name" : "Jabatan Keselamatan Sosial (PERKESO)"
	},
	{
		"postcode" : ["79540"],
		"name" : "Jabatan Tenaga Rakyat"
	},
	{
		"postcode" : ["79546"],
		"name" : "Pejabat Rela Negeri Johor"
	},
	{
		"postcode" : ["79548"],
		"name" : "Jabatan Hal Ehwal Orang Asli"
	},
	{
		"postcode" : ["79550"],
		"name" : "Jabatan Imigresen"
	},
	{
		"postcode" : ["79552"],
		"name" : "Jabatan Pendaftar Pertubuhan"
	},
	{
		"postcode" : ["79555"],
		"name" : "Pejabat EXCO"
	},
	{
		"postcode" : ["79570"],
		"name" : "Jabatan Belia Dan Sukan"
	},
	{
		"postcode" : ["79575"],
		"name" : "Perbadanan Taman Negara"
	},
	{
		"postcode" : ["79576"],
		"name" : "Jabatan Tanah Dan Galian"
	},
	{
		"postcode" : ["79592"],
		"name" : "Pegawai Kewangan Negeri"
	},
	{
		"postcode" : ["79601"],
		"name" : "Majlis Sukan Negeri Johor"
	},
	{
		"postcode" : ["79603"],
		"name" : "Yayasan Pembangunan Keluarga"
	},
	{
		"postcode" : ["79605"],
		"name" : "Majlis Keselamatan Negara"
	},
	{
		"postcode" : ["79606"],
		"name" : "Jabatan Kemajuan Masyarakat (KEMAS)"
	},
	{
		"postcode" : ["79612"],
		"name" : "Jabatan Penerangan"
	},
	{
		"postcode" : ["79626"],
		"name" : "Jabatan Pengairan Dan Saliran"
	},
	{
		"postcode" : ["79630"],
		"name" : "Jabatan Haiwan"
	},
	{
		"postcode" : ["79632"],
		"name" : "Jabatan Pertanian"
	},
	{
		"postcode" : ["79646"],
		"name" : "Jabatan Perancang Bandar Dan Desa"
	},
	{
		"postcode" : ["79658"],
		"name" : "Jabatan Geosains Dan Metrologi"
	},
	{
		"postcode" : ["79660"],
		"name" : "Jabatan Perhutanan"
	},
	{
		"postcode" : ["79680"],
		"name" : "Pejabat Majlis Mesyuarat Kerajaan Dan Dewan Negeri Johor"
	},
	{
		"postcode" : ["79681"],
		"name" : "Pejabat Speaker"
	},
	{
		"postcode" : ["79683"],
		"name" : "Pejabat Setiausaha Jawatankuasa Negeri Johor"
	},
	{
		"postcode" : ["80000"],
		"name" : "Jalan Abdullah Ibrahim"
	},
	{
		"postcode" : ["80050"],
		"name" : "Jalan Badik 1"
	},
	{
		"postcode" : ["80100"],
		"name" : "Aloha Tower"
	},
	{
		"postcode" : ["80150"],
		"name" : "Bangunan Daiman"
	},
	{
		"postcode" : ["80200"],
		"name" : "Country Garden Danga Bay"
	},
	{
		"postcode" : ["80250"],
		"name" : "City Plaza"
	},
	{
		"postcode" : ["80300"],
		"name" : "Bukit Sekolah Arab"
	},
	{
		"postcode" : ["80350"],
		"name" : "Aman Larkin"
	},
	{
		"postcode" : ["80400"],
		"name" : "Jalan Abiad 1"
	},
	{
		"postcode" : ["80500"],
		"name" : "DYMM Sultan Johor"
	},
	{
		"postcode" : ["80506"],
		"name" : "Mahkamah Tinggi"
	},
	{
		"postcode" : ["80508"],
		"name" : "Amanah Raya Berhad"
	},
	{
		"postcode" : ["80516"],
		"name" : "Jabatan Pemegang Harta"
	},
	{
		"postcode" : ["80519"],
		"name" : "Majlis Agama Islam Johor"
	},
	{
		"postcode" : ["80534"],
		"name" : "Jabatan Keselamatan Kesihatan"
	},
	{
		"postcode" : ["80536"],
		"name" : "Jabatan Perhubungan Perusahaan"
	},
	{
		"postcode" : ["80542"],
		"name" : "Pendaftar Kesatuan Sekerja"
	},
	{
		"postcode" : ["80546"],
		"name" : "Pegawai Pemadam Negeri"
	},
	{
		"postcode" : ["80558"],
		"name" : "Jabatan Penjara"
	},
	{
		"postcode" : ["80560"],
		"name" : "Ketua Polis Negeri"
	},
	{
		"postcode" : ["80564"],
		"name" : "Jabatan Kebajikan Masyarakat"
	},
	{
		"postcode" : ["80568"],
		"name" : "Jabatan Arkib Negara"
	},
	{
		"postcode" : ["80578"],
		"name" : "Jabatan Ukur & Pemetaan"
	},
	{
		"postcode" : ["80584"],
		"name" : "Jabatan Anti Malaria"
	},
	{
		"postcode" : ["80586"],
		"name" : "Hospital Sultanah Aminah"
	},
	{
		"postcode" : ["80590"],
		"name" : "Jabatan Kesihatan"
	},
	{
		"postcode" : ["80592"],
		"name" : "Jabatan Penilaian Harta"
	},
	{
		"postcode" : ["80594"],
		"name" : "Akauntan Negeri"
	},
	{
		"postcode" : ["80596"],
		"name" : "Jabatan Kastam & Eksais Di Raja"
	},
	{
		"postcode" : ["80600"],
		"name" : "Lembaga Hasil Dalam Negeri"
	},
	{
		"postcode" : ["80604"],
		"name" : "Jabatan Pelajaran"
	},
	{
		"postcode" : ["80608"],
		"name" : "Jabatan Pembangunan Koperasi"
	},
	{
		"postcode" : ["80620"],
		"name" : "Jabatan Pengangkutan Jalan"
	},
	{
		"postcode" : ["80622"],
		"name" : "Jabatan Pendaftar Perniagaan"
	},
	{
		"postcode" : ["80628"],
		"name" : "Jabatan Perikanan"
	},
	{
		"postcode" : ["80644"],
		"name" : "Majlis Bandaraya Johor Bahru"
	},
	{
		"postcode" : ["80648"],
		"name" : "Jabatan Bomba & Penyelamat"
	},
	{
		"postcode" : ["80662"],
		"name" : "Jabatan Kimia"
	},
	{
		"postcode" : ["80664"],
		"name" : "Jabatan Perhilitan"
	},
	{
		"postcode" : ["80668"],
		"name" : "Jemaah Pemeriksa Elektrik"
	},
	{
		"postcode" : ["80670"],
		"name" : "Pos Malaysia Berhad"
	},
	{
		"postcode" : ["80672"],
		"name" : "Telekom Malaysia Berhad"
	},
	{
		"postcode" : ["80673"],
		"name" : "Tenaga Nasional Berhad"
	},
	{
		"postcode" : ["80676"],
		"name" : "Jabatan Agama Islam Johor"
	},
	{
		"postcode" : ["80700"],
		"name" : "Peti Surat 2 - 43"
	},
	{
		"postcode" : ["80710"],
		"name" : "Peti Surat 81 - 160"
	},
	{
		"postcode" : ["80720"],
		"name" : "Peti Surat 161 - 179"
	},
	{
		"postcode" : ["80730"],
		"name" : "Peti Surat 241 Ke Atas"
	},
	{
		"postcode" : ["80900"],
		"name" : "Peti Surat 1"
	},
	{
		"postcode" : ["80902"],
		"name" : "Peti Surat 44"
	},
	{
		"postcode" : ["80904"],
		"name" : "Peti Surat 50"
	},
	{
		"postcode" : ["80906"],
		"name" : "Peti Surat 180"
	},
	{
		"postcode" : ["80908"],
		"name" : "Peti Surat 190"
	},
	{
		"postcode" : ["80988"],
		"name" : "Badan Pencegah Rasuah"
	},
	{
		"postcode" : ["80990"],
		"name" : "Beg Berkunci"
	},
	{
		"postcode" : ["81000"],
		"name" : "Bandar Indahpura"
	},
	{
		"postcode" : ["81030"],
		"name" : "Kelapa Sawit"
	},
	{
		"postcode" : ["81100"],
		"name" : "Bandar Dato Onn"
	},
	{
		"postcode" : ["81200"],
		"name" : "Apartment Jasmin & Lily"
	},
	{
		"postcode" : ["81300"],
		"name" : "Bandar Baru Kangkar Pulai"
	},
	{
		"postcode" : ["81310"],
		"name" : "Universisti Teknologi Malaysia (UTM)"
	},
	{
		"postcode" : ["81400"],
		"name" : "Flat Perindu"
	},
	{
		"postcode" : ["81440"],
		"name" : "Bandar Petri Jaya"
	},
	{
		"postcode" : ["81450"],
		"name" : "Felda Bukit Besar"
	},
	{
		"postcode" : ["81500"],
		"name" : "Desa Baru"
	},
	{
		"postcode" : ["81550"],
		"name" : "Desa Paya Mengkuang"
	},
	{
		"postcode" : ["81600"],
		"name" : "Batu Layar"
	},
	{
		"postcode" : ["81700"],
		"name" : "Kampung Pasir Gudang Baru"
	},
	{
		"postcode" : ["81750"],
		"name" : "Apartment Prima Agency"
	},
	{
		"postcode" : ["81800"],
		"name" : "Ban Foo"
	},
	{
		"postcode" : ["81850"],
		"name" : "Bukit Permai"
	},
	{
		"postcode" : ["81900"],
		"name" : "Bandar Sri Perani"
	},
	{
		"postcode" : ["81920"],
		"name" : "Ayer Tawar 2"
	},
	{
		"postcode" : ["81930"],
		"name" : "Bandar Mas"
	},
	{
		"postcode" : ["82000"],
		"name" : "Bandar Baru Pontian"
	},
	{
		"postcode" : ["82100"],
		"name" : "Ayer Baloi"
	},
	{
		"postcode" : ["82200"],
		"name" : "Bandar Baru Benut"
	},
	{
		"postcode" : ["82300"],
		"name" : "Jalan Alsagof Penerok"
	},
	{
		"postcode" : ["83000"],
		"name" : "Bagan"
	},
	{
		"postcode" : ["83010"],
		"name" : "Tongkang Pechah"
	},
	{
		"postcode" : ["83100"],
		"name" : "Aked Mara"
	},
	{
		"postcode" : ["83200"],
		"name" : "Batu 11 Bukit Batu"
	},
	{
		"postcode" : ["83300"],
		"name" : "Batu 5 Jalan Kluang"
	},
	{
		"postcode" : ["83400"],
		"name" : "Air Putih"
	},
	{
		"postcode" : ["83500"],
		"name" : "Batu 1 Jalan Yong Peng"
	},
	{
		"postcode" : ["83600"],
		"name" : "Jalan Bukit Mor"
	},
	{
		"postcode" : ["83700"],
		"name" : "Bangunan Mara"
	},
	{
		"postcode" : ["84000"],
		"name" : "Ayer Hitam"
	},
	{
		"postcode" : ["84150"],
		"name" : "Bukit Mor"
	},
	{
		"postcode" : ["84200"],
		"name" : "Ayer Hitam"
	},
	{
		"postcode" : ["84300"],
		"name" : "Bukit Pasir"
	},
	{
		"postcode" : ["84400"],
		"name" : "Jalan Bukit Kangkar"
	},
	{
		"postcode" : ["84500"],
		"name" : "Bukit Setaki"
	},
	{
		"postcode" : ["84600"],
		"name" : "Batu 30 Kampung Sarjan"
	},
	{
		"postcode" : ["84700"],
		"name" : "Bukit Katil Estate"
	},
	{
		"postcode" : ["84800"],
		"name" : "Bandar Baru Bukit Gambir"
	},
	{
		"postcode" : ["84900"],
		"name" : "Bandar Baru Tangkak"
	},
	{
		"postcode" : ["85000"],
		"name" : "Bandar 32"
	},
	{
		"postcode" : ["85010"],
		"name" : "Buloh Kasap"
	},
	{
		"postcode" : ["85020"],
		"name" : "Bukit Siput"
	},
	{
		"postcode" : ["85100"],
		"name" : "Batu Anam"
	},
	{
		"postcode" : ["85200"],
		"name" : "Bukit Serampang"
	},
	{
		"postcode" : ["85300"],
		"name" : "Ayer Panas"
	},
	{
		"postcode" : ["85400"],
		"name" : "Chaah"
	},
	{
		"postcode" : ["86000"],
		"name" : "Bandar Baru"
	},
	{
		"postcode" : ["86100"],
		"name" : "Ayer Hitam"
	},
	{
		"postcode" : ["86200"],
		"name" : "Bandar Baru Parit Ibrahim Majid"
	},
	{
		"postcode" : ["86300"],
		"name" : "Bandar Rengam"
	},
	{
		"postcode" : ["86400"],
		"name" : "Bandar Universiti"
	},
	{
		"postcode" : ["86500"],
		"name" : "Bekok"
	},
	{
		"postcode" : ["86600"],
		"name" : "Batang Redan"
	},
	{
		"postcode" : ["86700"],
		"name" : "Espek Sungai Chales"
	},
	{
		"postcode" : ["86800"],
		"name" : "Ayer Tawar"
	},
	{
		"postcode" : ["86810"],
		"name" : "Felcra Sri Mersing"
	},
	{
		"postcode" : ["86900"],
		"name" : "Belukar Juling"
	}
]
