[
	{
		"postcode" : ["05000"],
		"name" : "Jalan Istana Lama"
	},
	{
		"postcode" : ["05050"],
		"name" : "Jalan Ampang Jajar"
	},
	{
		"postcode" : ["05100"],
		"name" : "Jalan Bakar Bata"
	},
	{
		"postcode" : ["05150"],
		"name" : "Alor Melintang Anak"
	},
	{
		"postcode" : ["05200"],
		"name" : "Jalan Ambar"
	},
	{
		"postcode" : ["05250"],
		"name" : "Alor Merah"
	},
	{
		"postcode" : ["05300"],
		"name" : "Jalan Alor Melong"
	},
	{
		"postcode" : ["05350"],
		"name" : "Hutan Kampung"
	},
	{
		"postcode" : ["05400"],
		"name" : "Alor Gelegah"
	},
	{
		"postcode" : ["05460"],
		"name" : "Alor Malai"
	},
	{
		"postcode" : ["05500"],
		"name" : "DYMM Sultan Kedah"
	},
	{
		"postcode" : ["05502"],
		"name" : "Penyelia Bangunan Persekutuan"
	},
	{
		"postcode" : ["05503"],
		"name" : "Setiausaha Kerajaan Negeri"
	},
	{
		"postcode" : ["05504"],
		"name" : "Biro Bantuan Guaman"
	},
	{
		"postcode" : ["05505"],
		"name" : "Biro Pengaduan Awam"
	},
	{
		"postcode" : ["05506"],
		"name" : "Mahkamah Tinggi"
	},
	{
		"postcode" : ["05508"],
		"name" : "Amanah Raya Berhad"
	},
	{
		"postcode" : ["05512"],
		"name" : "Penasihat Undang-Undang Negeri"
	},
	{
		"postcode" : ["05514"],
		"name" : "Jabatan Perangkaan"
	},
	{
		"postcode" : ["05516"],
		"name" : "Jabatan Pemegang Harta"
	},
	{
		"postcode" : ["05517"],
		"name" : "Jabatan Perpaduan Negara"
	},
	{
		"postcode" : ["05518"],
		"name" : "Jabatan Audit Negeri"
	},
	{
		"postcode" : ["05520"],
		"name" : "Suruhanjaya Perkhidmatan Awam"
	},
	{
		"postcode" : ["05532"],
		"name" : "Jabatan Sumber Manusia"
	},
	{
		"postcode" : ["05534"],
		"name" : "Jabatan Kilang & Jentera"
	},
	{
		"postcode" : ["05536"],
		"name" : "Jabatan Perhubungan Perusahaan"
	},
	{
		"postcode" : ["05538"],
		"name" : "Jabatan Keselamatan Sosial (Perkeso)"
	},
	{
		"postcode" : ["05550"],
		"name" : "Jabatan Imigresen"
	},
	{
		"postcode" : ["05551"],
		"name" : "Jabatan Pendaftaran Negara"
	},
	{
		"postcode" : ["05552"],
		"name" : "Jabatan Pendaftar Pertubuhan"
	},
	{
		"postcode" : ["05556"],
		"name" : "Jabatan Pertahanan Awam"
	},
	{
		"postcode" : ["05558"],
		"name" : "Jabatan Penjara"
	},
	{
		"postcode" : ["05560"],
		"name" : "Ketua Polis Negeri"
	},
	{
		"postcode" : ["05564"],
		"name" : "Jabatan Kebajikan Masyarakat"
	},
	{
		"postcode" : ["05576"],
		"name" : "Jabatan Tanah & Galian"
	},
	{
		"postcode" : ["05578"],
		"name" : "Jabatan Ukur & Pemetaan"
	},
	{
		"postcode" : ["05580"],
		"name" : "Jabatan Kerja Air"
	},
	{
		"postcode" : ["05582"],
		"name" : "Jabatan Kerja Raya"
	},
	{
		"postcode" : ["05586"],
		"name" : "Hospital Alor Setar"
	},
	{
		"postcode" : ["05590"],
		"name" : "Jabatan Kesihatan"
	},
	{
		"postcode" : ["05592"],
		"name" : "Jabatan Penilaian Harta"
	},
	{
		"postcode" : ["05594"],
		"name" : "Akauntan Negeri"
	},
	{
		"postcode" : ["05600"],
		"name" : "Lembaga Hasil Dalam Negeri"
	},
	{
		"postcode" : ["05604"],
		"name" : "Jabatan Pendidikan"
	},
	{
		"postcode" : ["05610"],
		"name" : "Bahagian Perlesenan - Kementerian Penerangan"
	},
	{
		"postcode" : ["05612"],
		"name" : "Jabatan Penerangan"
	},
	{
		"postcode" : ["05614"],
		"name" : "Jabatan Penyiaran"
	},
	{
		"postcode" : ["05620"],
		"name" : "Jabatan Pengangkutan Jalan"
	},
	{
		"postcode" : ["05621"],
		"name" : "Pejabat Pentadbiran KTM (Alor Setar)"
	},
	{
		"postcode" : ["05622"],
		"name" : "Jabatan Pendaftar Perniagaan"
	},
	{
		"postcode" : ["05626"],
		"name" : "Jabatan Pengairan & Saliran"
	},
	{
		"postcode" : ["05628"],
		"name" : "Jabatan Perikanan"
	},
	{
		"postcode" : ["05630"],
		"name" : "Jabatan Haiwan"
	},
	{
		"postcode" : ["05632"],
		"name" : "Jabatan Pertanian"
	},
	{
		"postcode" : ["05644"],
		"name" : "Jabatan Perumahan Negara"
	},
	{
		"postcode" : ["05660"],
		"name" : "Jabatan Perhutanan"
	},
	{
		"postcode" : ["05661"],
		"name" : "Padi & Beras Nasional (Bernas)"
	},
	{
		"postcode" : ["05664"],
		"name" : "Jabatan Perhilitan"
	},
	{
		"postcode" : ["05670"],
		"name" : "Pos Malaysia Berhad"
	},
	{
		"postcode" : ["05672"],
		"name" : "Telekom Malaysia Berhad"
	},
	{
		"postcode" : ["05673"],
		"name" : "Tenaga Nasional Berhad"
	},
	{
		"postcode" : ["05674"],
		"name" : "Pegawai Kemajuan Negeri"
	},
	{
		"postcode" : ["05675"],
		"name" : "Majlis Perbandaran Kota Setar"
	},
	{
		"postcode" : ["05676"],
		"name" : "Jabatan Agama Islam Kedah"
	},
	{
		"postcode" : ["05680"],
		"name" : "Dewan Undangan Negeri"
	},
	{
		"postcode" : ["05690"],
		"name" : "Suruhanjaya Pilihanraya Negeri"
	},
	{
		"postcode" : ["05696"],
		"name" : "Jabatan Kastam & Eksais Di Raja"
	},
	{
		"postcode" : ["05700"],
		"name" : "Peti Surat 1 - 80"
	},
	{
		"postcode" : ["05710"],
		"name" : "Peti Surat 81 - 160"
	},
	{
		"postcode" : ["05720"],
		"name" : "Peti Surat 161 & Ke Atas"
	},
	{
		"postcode" : ["05990"],
		"name" : "Beg Berkunci"
	},
	{
		"postcode" : ["06000"],
		"name" : "Ason"
	},
	{
		"postcode" : ["06007"],
		"name" : "Peti Surat"
	},
	{
		"postcode" : ["06009"],
		"name" : "Beg Berkunci"
	},
	{
		"postcode" : ["06010"],
		"name" : "Changloon"
	},
	{
		"postcode" : ["06050"],
		"name" : "Bukit Kayu Hitam"
	},
	{
		"postcode" : ["06100"],
		"name" : "Jalan Kodiang (Batu 20 - 22)"
	},
	{
		"postcode" : ["06150"],
		"name" : "Ayer Hitam"
	},
	{
		"postcode" : ["06200"],
		"name" : "Bukit Pinang"
	},
	{
		"postcode" : ["06207"],
		"name" : "Peti Surat"
	},
	{
		"postcode" : ["06209"],
		"name" : "Beg Berkunci"
	},
	{
		"postcode" : ["06250"],
		"name" : "Alor Janggus"
	},
	{
		"postcode" : ["06300"],
		"name" : "Ampangan Pedu"
	},
	{
		"postcode" : ["06350"],
		"name" : "Jalan Naka (Batu 18 1/2)"
	},
	{
		"postcode" : ["06400"],
		"name" : "Bukit Panjang"
	},
	{
		"postcode" : ["06500"],
		"name" : "Jalan Datuk Kumbar (Batu 4 3/4 - 10)"
	},
	{
		"postcode" : ["06507"],
		"name" : "Peti Surat"
	},
	{
		"postcode" : ["06509"],
		"name" : "Beg Berkunci, Langgar"
	},
	{
		"postcode" : ["06550"],
		"name" : "Anak Bukit"
	},
	{
		"postcode" : ["06570"],
		"name" : "Gunung Keriang"
	},
	{
		"postcode" : ["06600"],
		"name" : "Alor Ibus Tepi Laut"
	},
	{
		"postcode" : ["06650"],
		"name" : "Jalan Tokai (Batu 7 - 8)"
	},
	{
		"postcode" : ["06660"],
		"name" : "Tokai"
	},
	{
		"postcode" : ["06700"],
		"name" : "Bukit Raya"
	},
	{
		"postcode" : ["06707"],
		"name" : "Peti Surat"
	},
	{
		"postcode" : ["06709"],
		"name" : "Beg Berkunci"
	},
	{
		"postcode" : ["06710"],
		"name" : "Felda Lubuk Merbau"
	},
	{
		"postcode" : ["06720"],
		"name" : "Bukit Genting Estate"
	},
	{
		"postcode" : ["06750"],
		"name" : "Kampung Bendang Petani"
	},
	{
		"postcode" : ["06760"],
		"name" : "Kubor Panjang"
	},
	{
		"postcode" : ["06800"],
		"name" : "Batu 11 1/2 Jalan Sungai Petani"
	},
	{
		"postcode" : ["06900"],
		"name" : "Batu 21 1/4 - 24 3/4 Jalan Yan"
	},
	{
		"postcode" : ["06910"],
		"name" : "Kampung Hutan Gelam"
	},
	{
		"postcode" : ["07000"],
		"name" : "Ayer Hangat"
	},
	{
		"postcode" : ["07007"],
		"name" : "Peti Surat"
	},
	{
		"postcode" : ["07009"],
		"name" : "Beg Berkunci"
	},
	{
		"postcode" : ["08000"],
		"name" : "Ambangan Height"
	},
	{
		"postcode" : ["08007"],
		"name" : "Peti Surat"
	},
	{
		"postcode" : ["08009"],
		"name" : "Beg Berkunci"
	},
	{
		"postcode" : ["08010"],
		"name" : "Bukit Belachan"
	},
	{
		"postcode" : ["08100"],
		"name" : "Bedong"
	},
	{
		"postcode" : ["08110"],
		"name" : "Kampung Huma"
	},
	{
		"postcode" : ["08200"],
		"name" : "Kampung Balong Ayam"
	},
	{
		"postcode" : ["08210"],
		"name" : "Gulau"
	},
	{
		"postcode" : ["08300"],
		"name" : "Gurun"
	},
	{
		"postcode" : ["08320"],
		"name" : "Desa Jaya"
	},
	{
		"postcode" : ["08330"],
		"name" : "Kampung Baru Bukit Kuang"
	},
	{
		"postcode" : ["08340"],
		"name" : "Bandar Baru Beris Jaya"
	},
	{
		"postcode" : ["08400"],
		"name" : "Kampung Badong"
	},
	{
		"postcode" : ["08407"],
		"name" : "Peti Surat"
	},
	{
		"postcode" : ["08409"],
		"name" : "Beg Berkunci"
	},
	{
		"postcode" : ["08500"],
		"name" : "Alor Nibong"
	},
	{
		"postcode" : ["08507"],
		"name" : "Peti Surat"
	},
	{
		"postcode" : ["08509"],
		"name" : "Beg Berkunci"
	},
	{
		"postcode" : ["08600"],
		"name" : "Kampung Baru Simpor"
	},
	{
		"postcode" : ["08700"],
		"name" : "Jeneri"
	},
	{
		"postcode" : ["08800"],
		"name" : "Batu 20 Jalan Yan"
	},
	{
		"postcode" : ["09000"],
		"name" : "Bandar Baru Kulim"
	},
	{
		"postcode" : ["09007"],
		"name" : "Peti Surat"
	},
	{
		"postcode" : ["09009"],
		"name" : "Beg Berkunci"
	},
	{
		"postcode" : ["09010"],
		"name" : "Kampung Bagan Sena"
	},
	{
		"postcode" : ["09020"],
		"name" : "Bukit Hijau"
	},
	{
		"postcode" : ["09090"],
		"name" : "Kulim Hi-Tech"
	},
	{
		"postcode" : ["09100"],
		"name" : "Baling"
	},
	{
		"postcode" : ["09110"],
		"name" : "Kampung Batu Kuala Pegang"
	},
	{
		"postcode" : ["09120"],
		"name" : "Kampung Baru Bakai"
	},
	{
		"postcode" : ["09130"],
		"name" : "Kampung Ayer Kepar"
	},
	{
		"postcode" : ["09200"],
		"name" : "Banggol Lahar"
	},
	{
		"postcode" : ["09300"],
		"name" : "Felcra Bukit Hijau"
	},
	{
		"postcode" : ["09310"],
		"name" : "Kampung Baru Tawar"
	},
	{
		"postcode" : ["09400"],
		"name" : "Kampung Banggol"
	},
	{
		"postcode" : ["09410"],
		"name" : "Kampung Baru Bukit Karangan"
	},
	{
		"postcode" : ["09600"],
		"name" : "Flat Kulim Square"
	},
	{
		"postcode" : ["09700"],
		"name" : "Banggol Penyengat"
	},
	{
		"postcode" : ["09800"],
		"name" : "Kampung Badlishah"
	},
	{
		"postcode" : ["09810"],
		"name" : "Kampung Chong Meng"
	},
	{
		"postcode" : ["14290"],
		"name" : "Jalan Klinik Relau"
	},
	{
		"postcode" : ["14390"],
		"name" : "Kampung Balai Lama Sungai Kecil"
	},
	{
		"postcode" : ["34950"],
		"name" : "Bagan Samak"
	}
]
