[
	{
		"postcode" : ["15000"],
		"name" : "Apartment Pelangi Mall Jalan Post Office Lama"
	},
	{
		"postcode" : ["15050"],
		"name" : "Arkid Beli Belah Jalan Hamzah"
	},
	{
		"postcode" : ["15100"],
		"name" : "Batu 8 - Batu 10 3/4 Jalan Pasir Mas Salor"
	},
	{
		"postcode" : ["15150"],
		"name" : "Bangunan Teong Hoe"
	},
	{
		"postcode" : ["15159"],
		"name" : "Beg Berkunci, Kubang Kerian"
	},
	{
		"postcode" : ["15200"],
		"name" : "Bangunan Ismail Yaakub"
	},
	{
		"postcode" : ["15300"],
		"name" : "Bangunan Dppm"
	},
	{
		"postcode" : ["15350"],
		"name" : "Banggol"
	},
	{
		"postcode" : ["15400"],
		"name" : "Batu 1 1/2 & Batu 1 1/4 Jalan Pengkalan Chepa"
	},
	{
		"postcode" : ["15500"],
		"name" : "Dymm Sultan Kelantan"
	},
	{
		"postcode" : ["15502"],
		"name" : "Penyelia Wisma Persekutuan"
	},
	{
		"postcode" : ["15503"],
		"name" : "Majlis Keselamatan Negeri"
	},
	{
		"postcode" : ["15504"],
		"name" : "Biro Bantuan Guaman"
	},
	{
		"postcode" : ["15505"],
		"name" : "Biro Pengaduan Awam"
	},
	{
		"postcode" : ["15506"],
		"name" : "Mahkamah Tinggi"
	},
	{
		"postcode" : ["15508"],
		"name" : "Amanah Raya Berhad"
	},
	{
		"postcode" : ["15512"],
		"name" : "Penasihat Undang-Undang Negeri"
	},
	{
		"postcode" : ["15514"],
		"name" : "Jabatan Perangkaan"
	},
	{
		"postcode" : ["15516"],
		"name" : "Jabatan Pemegang Harta"
	},
	{
		"postcode" : ["15517"],
		"name" : "Jabatan Perpaduan Negara"
	},
	{
		"postcode" : ["15518"],
		"name" : "Ketua Audit Negeri"
	},
	{
		"postcode" : ["15519"],
		"name" : "Majlis Agama Islam Kelantan"
	},
	{
		"postcode" : ["15520"],
		"name" : "Suruhanjaya Perkhidmatan Awam"
	},
	{
		"postcode" : ["15524"],
		"name" : "Pegawai Keselamatan Kerajaan"
	},
	{
		"postcode" : ["15529"],
		"name" : "Unit Penyelidikan Sosio Ekonomi"
	},
	{
		"postcode" : ["15532"],
		"name" : "Jabatan Sumber Manusia"
	},
	{
		"postcode" : ["15534"],
		"name" : "Jabatan Kilang & Jentera"
	},
	{
		"postcode" : ["15536"],
		"name" : "Jabatan Perhubungan Perusahaan"
	},
	{
		"postcode" : ["15538"],
		"name" : "Jabatan Keselamatan Sosial (Perkeso)"
	},
	{
		"postcode" : ["15540"],
		"name" : "Jabatan Tenaga Rakyat"
	},
	{
		"postcode" : ["15546"],
		"name" : "Pegawai Pemadam Negeri"
	},
	{
		"postcode" : ["15548"],
		"name" : "Jabatan Hal Ehwal Orang Asli"
	},
	{
		"postcode" : ["15550"],
		"name" : "Jabatan Imigresen"
	},
	{
		"postcode" : ["15551"],
		"name" : "Jabatan Pendaftaran Negara"
	},
	{
		"postcode" : ["15556"],
		"name" : "Jabatan Pertahanan Awam"
	},
	{
		"postcode" : ["15558"],
		"name" : "Jabatan Penjara"
	},
	{
		"postcode" : ["15560"],
		"name" : "Ketua Polis Negeri"
	},
	{
		"postcode" : ["15564"],
		"name" : "Jabatan Kebajikan Masyarakat"
	},
	{
		"postcode" : ["15570"],
		"name" : "Jabatan Belia & Sukan"
	},
	{
		"postcode" : ["15572"],
		"name" : "Perbadanan Perpustaka Awam"
	},
	{
		"postcode" : ["15576"],
		"name" : "Jabatan Tanah & Galian"
	},
	{
		"postcode" : ["15578"],
		"name" : "Jabatan Ukur & Pemetaan"
	},
	{
		"postcode" : ["15582"],
		"name" : "Jabatan Kerja Raya"
	},
	{
		"postcode" : ["15586"],
		"name" : "Hospital Kota Bharu"
	},
	{
		"postcode" : ["15590"],
		"name" : "Jabatan Kesihatan"
	},
	{
		"postcode" : ["15592"],
		"name" : "Jabatan Penilaian Harta"
	},
	{
		"postcode" : ["15594"],
		"name" : "Akauntan Negeri"
	},
	{
		"postcode" : ["15596"],
		"name" : "Jabatan Kastam & Eksais Di Raja"
	},
	{
		"postcode" : ["15600"],
		"name" : "Lembaga Hasil Dalam Negeri"
	},
	{
		"postcode" : ["15604"],
		"name" : "Jabatan Pendidikan"
	},
	{
		"postcode" : ["15608"],
		"name" : "Jabatan Pembangunan Koperasi"
	},
	{
		"postcode" : ["15609"],
		"name" : "Pejabat Mara Negeri"
	},
	{
		"postcode" : ["15612"],
		"name" : "Bahagian Pelesenan - Kementerian Penerangan"
	},
	{
		"postcode" : ["15614"],
		"name" : "Jabatan Penyiaran"
	},
	{
		"postcode" : ["15616"],
		"name" : "Jabatan Pengangkutan Jalan"
	},
	{
		"postcode" : ["15622"],
		"name" : "Jabatan Pendaftar Perniagaan"
	},
	{
		"postcode" : ["15623"],
		"name" : "Penguatkuasa Kementerian Perdagangan Dalam Negeri"
	},
	{
		"postcode" : ["15626"],
		"name" : "Jabatan Pengairan & Saliran"
	},
	{
		"postcode" : ["15628"],
		"name" : "Jabatan Perikanan"
	},
	{
		"postcode" : ["15630"],
		"name" : "Jabatan Haiwan"
	},
	{
		"postcode" : ["15632"],
		"name" : "Jabatan Pertanian"
	},
	{
		"postcode" : ["15634"],
		"name" : "Pejabat Hal Ehwal Bekas Perajurit"
	},
	{
		"postcode" : ["15644"],
		"name" : "Perumahan Negara Wilayah"
	},
	{
		"postcode" : ["15646"],
		"name" : "Jabatan Perancang Bandar & Desa"
	},
	{
		"postcode" : ["15648"],
		"name" : "Jabatan Bomba & Penyelamat"
	},
	{
		"postcode" : ["15658"],
		"name" : "Jabatan Kajibumi"
	},
	{
		"postcode" : ["15660"],
		"name" : "Jabatan Perhutanan"
	},
	{
		"postcode" : ["15661"],
		"name" : "Padi & Beras Nasional (Bernas)"
	},
	{
		"postcode" : ["15664"],
		"name" : "Jabatan Perhilitan"
	},
	{
		"postcode" : ["15670"],
		"name" : "Pos Malaysia Berhad"
	},
	{
		"postcode" : ["15672"],
		"name" : "Telekom Malaysia Berhad"
	},
	{
		"postcode" : ["15673"],
		"name" : "Tenaga Nasional Berhad"
	},
	{
		"postcode" : ["15674"],
		"name" : "Pegawai Kemajuan Negeri"
	},
	{
		"postcode" : ["15676"],
		"name" : "Jabatan Agama Islam Kelantan"
	},
	{
		"postcode" : ["15680"],
		"name" : "Dewan Undangan Negeri"
	},
	{
		"postcode" : ["15690"],
		"name" : "Suruhanjaya Pilihanraya Negeri"
	},
	{
		"postcode" : ["15710"],
		"name" : "Peti Surat 1 - 80"
	},
	{
		"postcode" : ["15720"],
		"name" : "Badan Pencegah Rasuah"
	},
	{
		"postcode" : ["15730"],
		"name" : "Peti Surat 161 - 240"
	},
	{
		"postcode" : ["15740"],
		"name" : "Peti Surat 241 - 320"
	},
	{
		"postcode" : ["15988"],
		"name" : "Peti Surat 321 & Ke Atas"
	},
	{
		"postcode" : ["15990"],
		"name" : "Hospital USM"
	},
	{
		"postcode" : ["16010"],
		"name" : "Chabang Tiga Perol"
	},
	{
		"postcode" : ["16020"],
		"name" : "Kampung Anak Tembusu"
	},
	{
		"postcode" : ["16030"],
		"name" : "Chabang Tiga Bator Dalam"
	},
	{
		"postcode" : ["16040"],
		"name" : "Hadapan Masjid Kampung Laut"
	},
	{
		"postcode" : ["16050"],
		"name" : "Beris Kubor Besar"
	},
	{
		"postcode" : ["16060"],
		"name" : "Taman Desa Pura"
	},
	{
		"postcode" : ["16070"],
		"name" : "Belakang Pasar Lama Jelawat"
	},
	{
		"postcode" : ["16080"],
		"name" : "Balai Bomba"
	},
	{
		"postcode" : ["16090"],
		"name" : "Balai Penggawa Beris Kubur Besar"
	},
	{
		"postcode" : ["16100"],
		"name" : "Anak Sungai"
	},
	{
		"postcode" : ["16109"],
		"name" : "Beg Berkunci, Pengkalan Chepa"
	},
	{
		"postcode" : ["16150"],
		"name" : "Cabang Empat Limbat"
	},
	{
		"postcode" : ["16200"],
		"name" : "AADK"
	},
	{
		"postcode" : ["16210"],
		"name" : "Balai Polis Kuala Jambu"
	},
	{
		"postcode" : ["16250"],
		"name" : "Batu 2 1/2 Jalan Pasir Pekan"
	},
	{
		"postcode" : ["16300"],
		"name" : "Bachok"
	},
	{
		"postcode" : ["16310"],
		"name" : "Alor Pulai Hujung/Tengah"
	},
	{
		"postcode" : ["16320"],
		"name" : "Jalan Pantai Senak"
	},
	{
		"postcode" : ["16400"],
		"name" : "Jalan Pasir Puteh (8 - 12 KM)"
	},
	{
		"postcode" : ["16450"],
		"name" : "Alor Jalal"
	},
	{
		"postcode" : ["16500"],
		"name" : "Blok (JKR)"
	},
	{
		"postcode" : ["16600"],
		"name" : "Baruh Lahar"
	},
	{
		"postcode" : ["16700"],
		"name" : "Jalan Cherang Ruku"
	},
	{
		"postcode" : ["16800"],
		"name" : "Agensi Dadah Kebangsaan"
	},
	{
		"postcode" : ["16810"],
		"name" : "Bukit Jawa"
	},
	{
		"postcode" : ["17000"],
		"name" : "Alor Mas"
	},
	{
		"postcode" : ["17007"],
		"name" : "Peti Surat"
	},
	{
		"postcode" : ["17009"],
		"name" : "Beg Berkunci"
	},
	{
		"postcode" : ["17010"],
		"name" : "Alor Buloh"
	},
	{
		"postcode" : ["17020"],
		"name" : "Alor Pinggang"
	},
	{
		"postcode" : ["17030"],
		"name" : "Kampung Atas Pinggir"
	},
	{
		"postcode" : ["17040"],
		"name" : "Kampung Alor Tualang"
	},
	{
		"postcode" : ["17050"],
		"name" : "Jalan Kolam"
	},
	{
		"postcode" : ["17060"],
		"name" : "Alor Sinar"
	},
	{
		"postcode" : ["17070"],
		"name" : "Kampung Alor Jering"
	},
	{
		"postcode" : ["17200"],
		"name" : "Chabang Empat Salam"
	},
	{
		"postcode" : ["17500"],
		"name" : "Air Berdang Ipoh"
	},
	{
		"postcode" : ["17507"],
		"name" : "Peti Surat"
	},
	{
		"postcode" : ["17509"],
		"name" : "Beg Berkunci"
	},
	{
		"postcode" : ["17510"],
		"name" : "Felda Kemahang 3"
	},
	{
		"postcode" : ["17600"],
		"name" : "Air Papan"
	},
	{
		"postcode" : ["17610"],
		"name" : "Bukit Berangan"
	},
	{
		"postcode" : ["17700"],
		"name" : "AFFIN Bank"
	},
	{
		"postcode" : ["18000"],
		"name" : "Banggol Yek"
	},
	{
		"postcode" : ["18050"],
		"name" : "Kampung Tanggung Batu"
	},
	{
		"postcode" : ["18200"],
		"name" : "Dabong Hilir"
	},
	{
		"postcode" : ["18300"],
		"name" : "Balai Polis"
	},
	{
		"postcode" : ["18400"],
		"name" : "Bandar Temangan"
	},
	{
		"postcode" : ["18500"],
		"name" : "ALIA"
	}
]
