[
	{
		"postcode" : ["50000"],
		"name" : "Bangunan Bangkok Bank"
	},
	{
		"postcode" : ["50050"],
		"name" : "Balai Seni Lukis Negara"
	},
	{
		"postcode" : ["50088"],
		"name" : "Binjai On The Park"
	},
	{
		"postcode" : ["50100"],
		"name" : "6 CAP Square"
	},
	{
		"postcode" : ["50150"],
		"name" : "Jalan Changkat Stadium"
	},
	{
		"postcode" : ["50200"],
		"name" : "Blue Boy Mansion"
	},
	{
		"postcode" : ["50250"],
		"name" : "Bangunan Bank Industri"
	},
	{
		"postcode" : ["50300"],
		"name" : "Jalan Abdul Manan Nordin"
	},
	{
		"postcode" : ["50350"],
		"name" : "Bangunan DBKL"
	},
	{
		"postcode" : ["50400"],
		"name" : "Balai Islam"
	},
	{
		"postcode" : ["50450"],
		"name" : "Bangunan Angkasa Raya"
	},
	{
		"postcode" : ["50460"],
		"name" : "Bangunan Perangsang Segemal"
	},
	{
		"postcode" : ["50470"],
		"name" : "Hotel Summer View, KL"
	},
	{
		"postcode" : ["50480"],
		"name" : "Bangunan Bank Negara"
	},
	{
		"postcode" : ["50490"],
		"name" : "Bangunan Exchange Square"
	},
	{
		"postcode" : ["50500"],
		"name" : "Istana Negara"
	},
	{
		"postcode" : ["50502"],
		"name" : "Bahagian Kawal Selia Penyelenggaraan Pejabat Pengurus Bangunan"
	},
	{
		"postcode" : ["50504"],
		"name" : "Biro Bantuan Guaman Wilayah Persekutuan"
	},
	{
		"postcode" : ["50505"],
		"name" : "Biro Pengaduan Awam Wilayah Persekutuan"
	},
	{
		"postcode" : ["50506"],
		"name" : "Mahkamah Persekutuan Kuala Lumpur"
	},
	{
		"postcode" : ["50507"],
		"name" : "Institut Tadbiran Awam Negara (INTAN)"
	},
	{
		"postcode" : ["50508"],
		"name" : "Amanah Raya Berhad"
	},
	{
		"postcode" : ["50512"],
		"name" : "Jabatan Peguam Negara"
	},
	{
		"postcode" : ["50514"],
		"name" : "Jabatan Perangkaan Malaysia Wilayah Persekutuan"
	},
	{
		"postcode" : ["50515"],
		"name" : "Jabatan Pembangunan Wanita (HAWA)"
	},
	{
		"postcode" : ["50519"],
		"name" : "Jabatan Mufti Wilayah Persekutuan"
	},
	{
		"postcode" : ["50528"],
		"name" : "Tribunal Perkhidmatan Awam"
	},
	{
		"postcode" : ["50529"],
		"name" : "Unit Penyelidikan Sosio Ekonomi"
	},
	{
		"postcode" : ["50530"],
		"name" : "Perbadanan Tabung Pembangunan Kemahiran"
	},
	{
		"postcode" : ["50532"],
		"name" : "Jabatan Tenaga Kerja"
	},
	{
		"postcode" : ["50534"],
		"name" : "Jabatan Keselamatan Dan Kesihatan Pekerja (OSHA)"
	},
	{
		"postcode" : ["50536"],
		"name" : "Jabatan Perhubungan Perusahaan"
	},
	{
		"postcode" : ["50540"],
		"name" : "Jabatan Tenaga Rakyat"
	},
	{
		"postcode" : ["50544"],
		"name" : "Mahkamah Perusahaan"
	},
	{
		"postcode" : ["50546"],
		"name" : "Agensi Anti Dadah Kebangsaan Wilayah Persekutuan"
	},
	{
		"postcode" : ["50548"],
		"name" : "Jabatan Hal Ehwal Orang Asli"
	},
	{
		"postcode" : ["50550"],
		"name" : "Jabatan Imigresen"
	},
	{
		"postcode" : ["50551"],
		"name" : "Jabatan Pendaftaran Negara"
	},
	{
		"postcode" : ["50552"],
		"name" : "Jabatan Pendaftar Pertubuhan"
	},
	{
		"postcode" : ["50554"],
		"name" : "Percetakan Nasional Berhad"
	},
	{
		"postcode" : ["50556"],
		"name" : "Jabatan Pertahanan Awam"
	},
	{
		"postcode" : ["50560"],
		"name" : "Ibu Pejabat Polis Dang Wangi Kuala Lumpur"
	},
	{
		"postcode" : ["50562"],
		"name" : "Kementerian Pembangunan Wanita Keluarga & Masyarakat"
	},
	{
		"postcode" : ["50564"],
		"name" : "Jabatan Kebajikan Masyarakat"
	},
	{
		"postcode" : ["50566"],
		"name" : "Jabatan Muzium Dan Antikuiti"
	},
	{
		"postcode" : ["50568"],
		"name" : "Arkib Negara Malaysia"
	},
	{
		"postcode" : ["50572"],
		"name" : "Perpustakaan Negara Malaysia"
	},
	{
		"postcode" : ["50576"],
		"name" : "Jabatan Tanah & Galian"
	},
	{
		"postcode" : ["50578"],
		"name" : "Jabatan Ukur & Pemetaan"
	},
	{
		"postcode" : ["50580"],
		"name" : "Kementerian Kerja Raya"
	},
	{
		"postcode" : ["50582"],
		"name" : "Cawangan Kejuruteraan Jalan & Geoteknik"
	},
	{
		"postcode" : ["50586"],
		"name" : "Hospital Kuala Lumpur"
	},
	{
		"postcode" : ["50588"],
		"name" : "Institut Penyelidikan Perubatan (IMR)"
	},
	{
		"postcode" : ["50590"],
		"name" : "Bahagian Pembangunan Kompetensi, Kementerian Kesihatan"
	},
	{
		"postcode" : ["50592"],
		"name" : "Bahagian Pinjaman Perumahan Perbendaharaan Malaysia"
	},
	{
		"postcode" : ["50594"],
		"name" : "Bahagian Pengurusan Amanah Dan Sekuriti Jabatan Akauntan Negara"
	},
	{
		"postcode" : ["50596"],
		"name" : "Jabatan Kastam & Eksais Di Raja"
	},
	{
		"postcode" : ["50598"],
		"name" : "Kumpulan Wang Simpanan Pekerja"
	},
	{
		"postcode" : ["50599"],
		"name" : "Pesurahjaya Khas Cukai Pendapatan"
	},
	{
		"postcode" : ["50600"],
		"name" : "Lembaga Hasil Dalam Negeri Cawangan Cheras"
	},
	{
		"postcode" : ["50603"],
		"name" : "Universiti Malaya"
	},
	{
		"postcode" : ["50604"],
		"name" : "Bahagian Audit Sekolah, Kementerian Pelajaran Malaysia"
	},
	{
		"postcode" : ["50605"],
		"name" : "Lembaga Peperiksaan Malaysia, Kementerian Pelajaran Malaysia"
	},
	{
		"postcode" : ["50608"],
		"name" : "Jabatan Pembangunan Koperasi"
	},
	{
		"postcode" : ["50609"],
		"name" : "Majlis Amanah Rakyat"
	},
	{
		"postcode" : ["50610"],
		"name" : "Kementerian Penerangan, Komunikasi Dan Kebudayaan (KPKK)"
	},
	{
		"postcode" : ["50612"],
		"name" : "Jabatan Penerangan"
	},
	{
		"postcode" : ["50614"],
		"name" : "Jabatan Penyiaran"
	},
	{
		"postcode" : ["50620"],
		"name" : "Bahagian Teknologi Maklumat, Ibu Pejabat Jabatan Pengangkutan Jalan"
	},
	{
		"postcode" : ["50621"],
		"name" : "Pentadbiran Keretapi Tanah Melayu"
	},
	{
		"postcode" : ["50622"],
		"name" : "Kementerian Perdagangan Antarabangsa Dan Industri"
	},
	{
		"postcode" : ["50623"],
		"name" : "Jabatan Perdagangan Dalam Negeri Dan Hal Ehwal Pengguna"
	},
	{
		"postcode" : ["50626"],
		"name" : "Jabatan Pengairan & Saliran"
	},
	{
		"postcode" : ["50632"],
		"name" : "Bahagian Pengurusan Dan Pemuliharaan Sumber Tanah Jabatan Pertanian"
	},
	{
		"postcode" : ["50634"],
		"name" : "Jabatan Khidmat Negara"
	},
	{
		"postcode" : ["50636"],
		"name" : "Jabatan Ketua Hakim"
	},
	{
		"postcode" : ["50638"],
		"name" : "Kementerian Pertahanan - Bahagian Audit"
	},
	{
		"postcode" : ["50640"],
		"name" : "Kementerian Pertahanan - Bahagian Audit Dalam"
	},
	{
		"postcode" : ["50642"],
		"name" : "Pusat Penyelidikan Pertahanan"
	},
	{
		"postcode" : ["50644"],
		"name" : "Kementerian Perumahan Dan Kerajaan Tempatan"
	},
	{
		"postcode" : ["50646"],
		"name" : "Jabatan Perancangan Bandar & Desa"
	},
	{
		"postcode" : ["50648"],
		"name" : "Jabatan Bomba & Penyelamat"
	},
	{
		"postcode" : ["50650"],
		"name" : "Jabatan Perumahan Negara"
	},
	{
		"postcode" : ["50652"],
		"name" : "Yayasan Tekun Nasional Cawangan Ampang"
	},
	{
		"postcode" : ["50653"],
		"name" : "Lembaga Pelesenan Pengangkutan Jalan"
	},
	{
		"postcode" : ["50656"],
		"name" : "Jabatan Galian"
	},
	{
		"postcode" : ["50658"],
		"name" : "Jabatan Mineral Dan Geosains Malaysia"
	},
	{
		"postcode" : ["50660"],
		"name" : "Jabatan Perhutanan Malaysia"
	},
	{
		"postcode" : ["50661"],
		"name" : "Padi & Beras Nasional (Bernas)"
	},
	{
		"postcode" : ["50662"],
		"name" : "Pegawai Khidmat Pelanggan Pusat Sains Negara"
	},
	{
		"postcode" : ["50664"],
		"name" : "Jabatan Perlindungan Hidupan Liar & Taman Negara"
	},
	{
		"postcode" : ["50666"],
		"name" : "Majlis Penyelidikan & Kemajuan Sains Negara"
	},
	{
		"postcode" : ["50668"],
		"name" : "Jabatan Perkhidmatan Pembentungan"
	},
	{
		"postcode" : ["50670"],
		"name" : "Pos Malaysia Berhad"
	},
	{
		"postcode" : ["50672"],
		"name" : "Telekom Malaysia Berhad"
	},
	{
		"postcode" : ["50673"],
		"name" : "Tenaga Nasional Berhad"
	},
	{
		"postcode" : ["50676"],
		"name" : "Jabatan Agama Islam Wilayah Persekutuan"
	},
	{
		"postcode" : ["50677"],
		"name" : "Mahkamah Syariah Wilayah Persekutuan"
	},
	{
		"postcode" : ["50678"],
		"name" : "Jabatan Tanah Dan Galian Wilayah Persekutuan"
	},
	{
		"postcode" : ["50680"],
		"name" : "Parlimen Malaysia"
	},
	{
		"postcode" : ["50682"],
		"name" : "Penyimpan Mohor Besar Raja-Raja"
	},
	{
		"postcode" : ["50684"],
		"name" : "Suruhanjaya Perkhidmatan Polis"
	},
	{
		"postcode" : ["50688"],
		"name" : "Suruhanjaya Keretapi Tanah Melayu"
	},
	{
		"postcode" : ["50694"],
		"name" : "Istana Budaya"
	},
	{
		"postcode" : ["50700"],
		"name" : "Peti Surat 10001 - 10026"
	},
	{
		"postcode" : ["50702"],
		"name" : "Peti Surat 10046 - 10048"
	},
	{
		"postcode" : ["50704"],
		"name" : "Peti Surat 10050 - 10107"
	},
	{
		"postcode" : ["50706"],
		"name" : "Peti Surat 10166 - 10186"
	},
	{
		"postcode" : ["50708"],
		"name" : "Peti Surat 10226 - 10243"
	},
	{
		"postcode" : ["50710"],
		"name" : "Peti Surat 10286 - 10345"
	},
	{
		"postcode" : ["50712"],
		"name" : "Peti Surat 10346 - 10406"
	},
	{
		"postcode" : ["50714"],
		"name" : "Peti Surat 10436 - 10458"
	},
	{
		"postcode" : ["50716"],
		"name" : "Peti Surat 10496 - 10538"
	},
	{
		"postcode" : ["50718"],
		"name" : "Peti Surat 10577 - 10615"
	},
	{
		"postcode" : ["50720"],
		"name" : "Peti Surat 10616 - 10628"
	},
	{
		"postcode" : ["50722"],
		"name" : "Peti Surat 10676 - 10683"
	},
	{
		"postcode" : ["50724"],
		"name" : "Peti Surat 10736 - 10767"
	},
	{
		"postcode" : ["50726"],
		"name" : "Peti Surat 10796 - 10798"
	},
	{
		"postcode" : ["50728"],
		"name" : "Peti Surat 10856 - 10889"
	},
	{
		"postcode" : ["50730"],
		"name" : "Peti Surat 10916 - 10921"
	},
	{
		"postcode" : ["50732"],
		"name" : "Peti Surat 10976 - 10978"
	},
	{
		"postcode" : ["50734"],
		"name" : "Peti Surat 11036 - 11095"
	},
	{
		"postcode" : ["50736"],
		"name" : "Peti Surat 11096 - 11155"
	},
	{
		"postcode" : ["50738"],
		"name" : "Peti Surat 11156 - 11215"
	},
	{
		"postcode" : ["50740"],
		"name" : "Peti Surat 11216 - 11305"
	},
	{
		"postcode" : ["50742"],
		"name" : "Peti Surat 11306 - 11365"
	},
	{
		"postcode" : ["50744"],
		"name" : "Peti Surat 11366 - 11425"
	},
	{
		"postcode" : ["50746"],
		"name" : "Peti Surat 11426 - 11485"
	},
	{
		"postcode" : ["50748"],
		"name" : "Peti Surat 11486 - 11545"
	},
	{
		"postcode" : ["50750"],
		"name" : "Peti Surat 11546 - 11605"
	},
	{
		"postcode" : ["50752"],
		"name" : "Peti Surat 11606 - 11665"
	},
	{
		"postcode" : ["50754"],
		"name" : "Peti Surat 11666 - 11725"
	},
	{
		"postcode" : ["50758"],
		"name" : "Peti Surat 11726 - 11785"
	},
	{
		"postcode" : ["50760"],
		"name" : "Peti Surat 11846 - 11905"
	},
	{
		"postcode" : ["50762"],
		"name" : "Peti Surat 11906 - 11965"
	},
	{
		"postcode" : ["50764"],
		"name" : "Peti Surat 11966 - 12004"
	},
	{
		"postcode" : ["50766"],
		"name" : "Peti Surat 12026 - 12034"
	},
	{
		"postcode" : ["50768"],
		"name" : "Peti Surat 12086 - 12109"
	},
	{
		"postcode" : ["50770"],
		"name" : "Peti Surat 12176 - 12214"
	},
	{
		"postcode" : ["50772"],
		"name" : "Peti Surat 12236 - 12295"
	},
	{
		"postcode" : ["50774"],
		"name" : "Peti Surat 12296 - 12355"
	},
	{
		"postcode" : ["50776"],
		"name" : "Peti Surat 12356 - 12404"
	},
	{
		"postcode" : ["50778"],
		"name" : "Peti Surat 12416 - 12442"
	},
	{
		"postcode" : ["50780"],
		"name" : "Peti Surat 12476 - 12491"
	},
	{
		"postcode" : ["50782"],
		"name" : "Jabatan Perumahan Dan Kerajaan Tempatan"
	},
	{
		"postcode" : ["50784"],
		"name" : "Peti Surat 12596 - 12647"
	},
	{
		"postcode" : ["50786"],
		"name" : "Peti Surat 12649 - 12658"
	},
	{
		"postcode" : ["50788"],
		"name" : "Peti Surat 12716 - 12775"
	},
	{
		"postcode" : ["50790"],
		"name" : "Peti Surat 12776 - 12835"
	},
	{
		"postcode" : ["50792"],
		"name" : "Peti Surat 12543 - 12595"
	},
	{
		"postcode" : ["50794"],
		"name" : "Peti Surat 12926 - 12985"
	},
	{
		"postcode" : ["50796"],
		"name" : "Peti Surat 12986 - 13045"
	},
	{
		"postcode" : ["50798"],
		"name" : "Peti Surat 13046 - 13105"
	},
	{
		"postcode" : ["50800"],
		"name" : "Peti Surat 13106 - 13165"
	},
	{
		"postcode" : ["50802"],
		"name" : "Peti Surat 13166 - 13225"
	},
	{
		"postcode" : ["50804"],
		"name" : "Peti Surat 13226 - 13285"
	},
	{
		"postcode" : ["50806"],
		"name" : "Peti Surat 13286 - 13345"
	},
	{
		"postcode" : ["50808"],
		"name" : "Peti Surat 13346 - 13405"
	},
	{
		"postcode" : ["50810"],
		"name" : "Peti Surat 13406 - 13465"
	},
	{
		"postcode" : ["50812"],
		"name" : "Peti Surat 13466 - 13525"
	},
	{
		"postcode" : ["50814"],
		"name" : "Peti Surat 13526 - 13585"
	},
	{
		"postcode" : ["50816"],
		"name" : "Peti Surat 13586 - 13645"
	},
	{
		"postcode" : ["50818"],
		"name" : "Peti Surat 13646"
	},
	{
		"postcode" : ["50901"],
		"name" : "Peti Surat 10027"
	},
	{
		"postcode" : ["50902"],
		"name" : "Peti Surat 10049"
	},
	{
		"postcode" : ["50903"],
		"name" : "Peti Surat 10108"
	},
	{
		"postcode" : ["50904"],
		"name" : "Peti Surat 10112"
	},
	{
		"postcode" : ["50906"],
		"name" : "Peti Surat 10144"
	},
	{
		"postcode" : ["50907"],
		"name" : "Peti Surat 10145"
	},
	{
		"postcode" : ["50908"],
		"name" : "Peti Surat 10150"
	},
	{
		"postcode" : ["50909"],
		"name" : "Peti Surat 10157"
	},
	{
		"postcode" : ["50910"],
		"name" : "Peti Surat 10187"
	},
	{
		"postcode" : ["50911"],
		"name" : "Peti Surat 10197"
	},
	{
		"postcode" : ["50912"],
		"name" : "Peti Surat 10244"
	},
	{
		"postcode" : ["50913"],
		"name" : "Peti Surat 10407"
	},
	{
		"postcode" : ["50914"],
		"name" : "Peti Surat 10414"
	},
	{
		"postcode" : ["50915"],
		"name" : "Peti Surat 10459"
	},
	{
		"postcode" : ["50916"],
		"name" : "Peti Surat 10539"
	},
	{
		"postcode" : ["50917"],
		"name" : "Peti Surat 10594"
	},
	{
		"postcode" : ["50918"],
		"name" : "Peti Surat 10629"
	},
	{
		"postcode" : ["50919"],
		"name" : "Peti Surat 10667"
	},
	{
		"postcode" : ["50920"],
		"name" : "Peti Surat 10671"
	},
	{
		"postcode" : ["50921"],
		"name" : "Peti Surat 10684"
	},
	{
		"postcode" : ["50922"],
		"name" : "Peti Surat 10685"
	},
	{
		"postcode" : ["50923"],
		"name" : "Peti Surat 10734"
	},
	{
		"postcode" : ["50924"],
		"name" : "Peti Surat 10768"
	},
	{
		"postcode" : ["50925"],
		"name" : "Peti Surat 10799"
	},
	{
		"postcode" : ["50926"],
		"name" : "Peti Surat 10803"
	},
	{
		"postcode" : ["50927"],
		"name" : "Peti Surat 10846"
	},
	{
		"postcode" : ["50928"],
		"name" : "Peti Surat 10890"
	},
	{
		"postcode" : ["50929"],
		"name" : "Peti Surat 10922"
	},
	{
		"postcode" : ["50930"],
		"name" : "Peti Surat 10937"
	},
	{
		"postcode" : ["50931"],
		"name" : "Peti Surat 10959"
	},
	{
		"postcode" : ["50932"],
		"name" : "Peti Surat 10979"
	},
	{
		"postcode" : ["50933"],
		"name" : "Peti Surat 10997"
	},
	{
		"postcode" : ["50934"],
		"name" : "Peti Surat 12005"
	},
	{
		"postcode" : ["50935"],
		"name" : "Peti Surat 12006"
	},
	{
		"postcode" : ["50936"],
		"name" : "Peti Surat 12010"
	},
	{
		"postcode" : ["50937"],
		"name" : "Peti Surat 12035"
	},
	{
		"postcode" : ["50938"],
		"name" : "Peti Surat 12082"
	},
	{
		"postcode" : ["50939"],
		"name" : "Peti Surat 12110"
	},
	{
		"postcode" : ["50940"],
		"name" : "Peti Surat 12215"
	},
	{
		"postcode" : ["50941"],
		"name" : "Peti Surat 12225"
	},
	{
		"postcode" : ["50942"],
		"name" : "Peti Surat 12227"
	},
	{
		"postcode" : ["50943"],
		"name" : "Peti Surat 12231"
	},
	{
		"postcode" : ["50944"],
		"name" : "Peti Surat 12405"
	},
	{
		"postcode" : ["50945"],
		"name" : "Peti Surat 12443"
	},
	{
		"postcode" : ["50946"],
		"name" : "Peti Surat 12492"
	},
	{
		"postcode" : ["50947"],
		"name" : "Peti Surat 12542"
	},
	{
		"postcode" : ["50948"],
		"name" : "Peti Surat 12648"
	},
	{
		"postcode" : ["50949"],
		"name" : "Peti Surat 12659"
	},
	{
		"postcode" : ["50950"],
		"name" : "Peti Surat 12690"
	},
	{
		"postcode" : ["50988"],
		"name" : "Badan Pencegah Rasuah"
	},
	{
		"postcode" : ["50989"],
		"name" : "Peti Surat 8000"
	},
	{
		"postcode" : ["50990"],
		"name" : "Beg Berkunci"
	},
	{
		"postcode" : ["51000"],
		"name" : "Ampat Tin"
	},
	{
		"postcode" : ["51100"],
		"name" : "Batu Settlement"
	},
	{
		"postcode" : ["51200"],
		"name" : "Anjung Tiara Segambut"
	},
	{
		"postcode" : ["51700"],
		"name" : "Peti Surat 1 & Ke Atas, Sentul"
	},
	{
		"postcode" : ["51990"],
		"name" : "Beg Berkunci, Sentul"
	},
	{
		"postcode" : ["52000"],
		"name" : "Ampang Road (Jinjang)"
	},
	{
		"postcode" : ["52100"],
		"name" : "Cross Street (Jinjang)"
	},
	{
		"postcode" : ["52200"],
		"name" : "Bandar Baru Sri Damansara"
	},
	{
		"postcode" : ["53000"],
		"name" : "288 Residensi"
	},
	{
		"postcode" : ["53100"],
		"name" : "Alang Sedayu Resort"
	},
	{
		"postcode" : ["53200"],
		"name" : "Jalan 10/23G"
	},
	{
		"postcode" : ["53300"],
		"name" : "Apartment Madu Mas"
	},
	{
		"postcode" : ["53700"],
		"name" : "Peti Surat 161 - 240, Gombak"
	},
	{
		"postcode" : ["53800"],
		"name" : "Peti Surat 241 & Ke Atas, Gombak"
	},
	{
		"postcode" : ["53990"],
		"name" : "Beg Berkunci, Gombak"
	},
	{
		"postcode" : ["54000"],
		"name" : "Cangkat Keramat Hujung"
	},
	{
		"postcode" : ["54100"],
		"name" : "Graham Rise"
	},
	{
		"postcode" : ["54200"],
		"name" : "Desa Tun Hussein Onn"
	},
	{
		"postcode" : ["55000"],
		"name" : "Gerbang Ampang Hilir"
	},
	{
		"postcode" : ["55100"],
		"name" : "Akademi Badminton Malaysia"
	},
	{
		"postcode" : ["55200"],
		"name" : "Gourlay Crescent"
	},
	{
		"postcode" : ["55300"],
		"name" : "Pandan Perdana"
	},
	{
		"postcode" : ["55700"],
		"name" : "Peti Surat 6001 - 6054, Pudu"
	},
	{
		"postcode" : ["55710"],
		"name" : "Peti Surat 6081 - 6100, Pudu"
	},
	{
		"postcode" : ["55720"],
		"name" : "Peti Surat 6161 - 6184, Pudu"
	},
	{
		"postcode" : ["55900"],
		"name" : "Peti Surat 6055, Pudu"
	},
	{
		"postcode" : ["55902"],
		"name" : "Peti Surat 6065, Pudu"
	},
	{
		"postcode" : ["55904"],
		"name" : "Peti Surat 6066, Pudu"
	},
	{
		"postcode" : ["55906"],
		"name" : "Peti Surat 6078, Pudu"
	},
	{
		"postcode" : ["55908"],
		"name" : "Peti Surat 6079, Pudu"
	},
	{
		"postcode" : ["55910"],
		"name" : "Peti Surat 6101, Pudu"
	},
	{
		"postcode" : ["55912"],
		"name" : "Peti Surat 6103, Pudu"
	},
	{
		"postcode" : ["55914"],
		"name" : "Peti Surat 6118, Pudu"
	},
	{
		"postcode" : ["55916"],
		"name" : "Peti Surat 6120, Pudu"
	},
	{
		"postcode" : ["55918"],
		"name" : "Peti Surat 6122, Pudu"
	},
	{
		"postcode" : ["55920"],
		"name" : "Peti Surat 6132, Pudu"
	},
	{
		"postcode" : ["55922"],
		"name" : "Peti Surat 6140, Pudu"
	},
	{
		"postcode" : ["55924"],
		"name" : "Peti Surat 6146, Pudu"
	},
	{
		"postcode" : ["55926"],
		"name" : "Peti Surat 6148, Pudu"
	},
	{
		"postcode" : ["55928"],
		"name" : "Peti Surat 6150, Pudu"
	},
	{
		"postcode" : ["55930"],
		"name" : "Peti Surat 6155, Pudu"
	},
	{
		"postcode" : ["55932"],
		"name" : "Peti Surat 6185, Pudu"
	},
	{
		"postcode" : ["55934"],
		"name" : "Peti Surat 6203, Pudu"
	},
	{
		"postcode" : ["55990"],
		"name" : "Beg Berkunci, Pudu"
	},
	{
		"postcode" : ["56000"],
		"name" : "Alam Damai"
	},
	{
		"postcode" : ["56100"],
		"name" : "Apartment Pertama Residensi"
	},
	{
		"postcode" : ["57000"],
		"name" : "Aked Esplanad Bukit Jalil"
	},
	{
		"postcode" : ["57100"],
		"name" : "Batu Kong"
	},
	{
		"postcode" : ["57700"],
		"name" : "Peti Surat 7001 & Ke Atas, Sungai Besi"
	},
	{
		"postcode" : ["57990"],
		"name" : "Beg Berkunci, Sungai Besi"
	},
	{
		"postcode" : ["58000"],
		"name" : "Bedford Bussiness Park"
	},
	{
		"postcode" : ["58100"],
		"name" : "Bukit Pisang"
	},
	{
		"postcode" : ["58200"],
		"name" : "Bukit Indah"
	},
	{
		"postcode" : ["58700"],
		"name" : "Peti Surat 1 - 240, Jalan Klang Lama"
	},
	{
		"postcode" : ["58990"],
		"name" : "Beg Berkunci, Jalan Klang Lama"
	},
	{
		"postcode" : ["59000"],
		"name" : "Bangsar Aman"
	},
	{
		"postcode" : ["59100"],
		"name" : "Bangsar Baru"
	},
	{
		"postcode" : ["59200"],
		"name" : "Bandar Mid - Valley"
	},
	{
		"postcode" : ["59700"],
		"name" : "Peti Surat 1121 - 1200, Jalan Pantai Baru"
	},
	{
		"postcode" : ["59800"],
		"name" : "Peti Surat 1201 & Ke Atas, Jalan Pantai Baru"
	},
	{
		"postcode" : ["59990"],
		"name" : "Beg Berkunci, Jalan Pantai Baru"
	},
	{
		"postcode" : ["60000"],
		"name" : "Bukit Kiara Equestrian"
	}
]
