[
	{
		"postcode" : ["87000"],
		"name" : "Kampung Batu Arang"
	},
	{
		"postcode" : ["87010"],
		"name" : "Peti Surat 80001 - 80100"
	},
	{
		"postcode" : ["87011"],
		"name" : "Peti Surat 80101 - 80200"
	},
	{
		"postcode" : ["87012"],
		"name" : "Peti Surat 80201 - 80300"
	},
	{
		"postcode" : ["87013"],
		"name" : "Peti Surat 80301 - 80400"
	},
	{
		"postcode" : ["87014"],
		"name" : "Peti Surat 80401 - 80500"
	},
	{
		"postcode" : ["87015"],
		"name" : "Peti Surat 80501 - 80600"
	},
	{
		"postcode" : ["87016"],
		"name" : "Peti Surat 80601 - 80700"
	},
	{
		"postcode" : ["87017"],
		"name" : "Peti Surat 80701 - 80800"
	},
	{
		"postcode" : ["87018"],
		"name" : "Peti Surat 80801 - 80900"
	},
	{
		"postcode" : ["87019"],
		"name" : "Peti Surat 80901 - 81000"
	},
	{
		"postcode" : ["87020"],
		"name" : "Peti Surat 81001 - 81100"
	},
	{
		"postcode" : ["87021"],
		"name" : "Peti Surat 81101 - 81200"
	},
	{
		"postcode" : ["87022"],
		"name" : "Peti Surat 81201 - 81300"
	},
	{
		"postcode" : ["87023"],
		"name" : "Peti Surat 81301 - 81400"
	},
	{
		"postcode" : ["87024"],
		"name" : "Peti Surat 81401 - 81500"
	},
	{
		"postcode" : ["87025"],
		"name" : "Peti Surat 81501 - 81600"
	},
	{
		"postcode" : ["87026"],
		"name" : "Peti Surat 81601 - 81700"
	},
	{
		"postcode" : ["87027"],
		"name" : "Peti Surat 81701 - 81800"
	},
	{
		"postcode" : ["87028"],
		"name" : "Peti Surat 81801 - 81900"
	},
	{
		"postcode" : ["87029"],
		"name" : "Peti Surat 81901 - 82000"
	},
	{
		"postcode" : ["87030"],
		"name" : "Peti Surat 82001 - 82100"
	},
	{
		"postcode" : ["87031"],
		"name" : "Peti Surat 82101 - 82200"
	},
	{
		"postcode" : ["87032"],
		"name" : "Peti Surat 82201 - 82300"
	},
	{
		"postcode" : ["87033"],
		"name" : "Peti Surat 82301 - 82330"
	}
]
