[
	{
		"postcode" : ["70000"],
		"name" : "Bangunan Yayasan Negeri Sembilan"
	},
	{
		"postcode" : ["70100"],
		"name" : "Bukit Ampangan"
	},
	{
		"postcode" : ["70200"],
		"name" : "Bandar Ainsdale"
	},
	{
		"postcode" : ["70300"],
		"name" : "Biz Avenue"
	},
	{
		"postcode" : ["70400"],
		"name" : "Appartment Kasturi"
	},
	{
		"postcode" : ["70450"],
		"name" : "Bandar Prima Senawang"
	},
	{
		"postcode" : ["70500"],
		"name" : "DYMM Yang Di Pertuan Besar Negeri Sembilan"
	},
	{
		"postcode" : ["70502"],
		"name" : "YAB Menteri Besar Negeri Sembilan"
	},
	{
		"postcode" : ["70503"],
		"name" : "Setiausaha Kerajaan Negeri"
	},
	{
		"postcode" : ["70504"],
		"name" : "Biro Bantuan Guaman"
	},
	{
		"postcode" : ["70505"],
		"name" : "Biro Pengaduan Awam"
	},
	{
		"postcode" : ["70506"],
		"name" : "Mahkamah Tinggi"
	},
	{
		"postcode" : ["70508"],
		"name" : "Amanah Raya Berhad"
	},
	{
		"postcode" : ["70512"],
		"name" : "Penasihat Undang-Undang Negeri"
	},
	{
		"postcode" : ["70516"],
		"name" : "Jabatan Pemegang Harta"
	},
	{
		"postcode" : ["70517"],
		"name" : "Jabatan Perpaduan Negara"
	},
	{
		"postcode" : ["70518"],
		"name" : "Ketua Audit Negeri"
	},
	{
		"postcode" : ["70532"],
		"name" : "Jabatan Sumber Manusia"
	},
	{
		"postcode" : ["70534"],
		"name" : "Jabatan Kilang & Jentera"
	},
	{
		"postcode" : ["70536"],
		"name" : "Jabatan Perhubungan Perusahaan"
	},
	{
		"postcode" : ["70540"],
		"name" : "Jabatan Tenaga Rakyat"
	},
	{
		"postcode" : ["70546"],
		"name" : "Pejabat Rela Negeri"
	},
	{
		"postcode" : ["70548"],
		"name" : "Jabatan Hal Ehwal Orang Asli"
	},
	{
		"postcode" : ["70550"],
		"name" : "Jabatan Imigresen"
	},
	{
		"postcode" : ["70551"],
		"name" : "Jabatan Pendaftaran Negara"
	},
	{
		"postcode" : ["70558"],
		"name" : "Penguasa Penjara"
	},
	{
		"postcode" : ["70560"],
		"name" : "Ketua Polis Negeri"
	},
	{
		"postcode" : ["70564"],
		"name" : "Jabatan Kebajikan Masyarakat"
	},
	{
		"postcode" : ["70570"],
		"name" : "Jabatan Belia & Sukan"
	},
	{
		"postcode" : ["70572"],
		"name" : "Perpustakaan Awam Negeri"
	},
	{
		"postcode" : ["70576"],
		"name" : "Jabatan Tanah & Galian"
	},
	{
		"postcode" : ["70578"],
		"name" : "Jabatan Ukur & Pemetaan"
	},
	{
		"postcode" : ["70582"],
		"name" : "Jabatan Kerja Raya"
	},
	{
		"postcode" : ["70586"],
		"name" : "Hospital Seremban"
	},
	{
		"postcode" : ["70590"],
		"name" : "Jabatan Kesihatan"
	},
	{
		"postcode" : ["70592"],
		"name" : "Pegawai Kewangan Negeri"
	},
	{
		"postcode" : ["70594"],
		"name" : "Akauntan Negeri"
	},
	{
		"postcode" : ["70596"],
		"name" : "Jabatan Kastam & Eksais Di Raja"
	},
	{
		"postcode" : ["70600"],
		"name" : "Lembaga Hasil Dalam Negeri"
	},
	{
		"postcode" : ["70604"],
		"name" : "Jabatan Pendidikan"
	},
	{
		"postcode" : ["70606"],
		"name" : "Jabatan Kemajuan Masyarakat (Kemas)"
	},
	{
		"postcode" : ["70608"],
		"name" : "Jabatan Pembangunan Koperasi"
	},
	{
		"postcode" : ["70609"],
		"name" : "Pejabat Mara Negeri"
	},
	{
		"postcode" : ["70610"],
		"name" : "Bahagian Pelesenan - Kementerian Penerangan"
	},
	{
		"postcode" : ["70620"],
		"name" : "Jabatan Pengangkutan Jalan"
	},
	{
		"postcode" : ["70626"],
		"name" : "Jabatan Pengairan & Saliran"
	},
	{
		"postcode" : ["70628"],
		"name" : "Jabatan Perikanan"
	},
	{
		"postcode" : ["70632"],
		"name" : "Jabatan Pertanian"
	},
	{
		"postcode" : ["70634"],
		"name" : "Panglima Markas 1 Breged (Kem Rasah)"
	},
	{
		"postcode" : ["70644"],
		"name" : "Majlis Perbandaran Seremban"
	},
	{
		"postcode" : ["70646"],
		"name" : "Jabatan Perancang Bandar & Desa"
	},
	{
		"postcode" : ["70648"],
		"name" : "Jabatan Bomba & Penyelamat"
	},
	{
		"postcode" : ["70658"],
		"name" : "Jabatan Kajibumi"
	},
	{
		"postcode" : ["70664"],
		"name" : "Jabatan Perhilitan"
	},
	{
		"postcode" : ["70670"],
		"name" : "Pos Malaysia Berhad"
	},
	{
		"postcode" : ["70672"],
		"name" : "Telekom Malaysia Berhad"
	},
	{
		"postcode" : ["70673"],
		"name" : "Tenaga Nasional Berhad"
	},
	{
		"postcode" : ["70674"],
		"name" : "Pegawai Kemajuan Negeri"
	},
	{
		"postcode" : ["70676"],
		"name" : "Jabatan Agama Islam Negeri Sembilan"
	},
	{
		"postcode" : ["70690"],
		"name" : "Suruhanjaya Pilihan Raya Negeri"
	},
	{
		"postcode" : ["70700"],
		"name" : "Peti Surat 1 - 80"
	},
	{
		"postcode" : ["70710"],
		"name" : "Peti Surat 81 - 160"
	},
	{
		"postcode" : ["70720"],
		"name" : "Peti Surat 161 - 240"
	},
	{
		"postcode" : ["70730"],
		"name" : "Peti Surat 241 - 320"
	},
	{
		"postcode" : ["70740"],
		"name" : "Peti Surat 321 - 400"
	},
	{
		"postcode" : ["70750"],
		"name" : "Peti Surat 401 & Ke Atas"
	},
	{
		"postcode" : ["70990"],
		"name" : "Beg Berkunci"
	},
	{
		"postcode" : ["71000"],
		"name" : "Andrappan Block"
	},
	{
		"postcode" : ["71007"],
		"name" : "Peti Surat"
	},
	{
		"postcode" : ["71009"],
		"name" : "Beg Berkunci"
	},
	{
		"postcode" : ["71010"],
		"name" : "Bandar Baru Lukut Jaya"
	},
	{
		"postcode" : ["71050"],
		"name" : "Bandar Baru Sunggala"
	},
	{
		"postcode" : ["71059"],
		"name" : "Beg Berkunci"
	},
	{
		"postcode" : ["71100"],
		"name" : "Atherthon Estate"
	},
	{
		"postcode" : ["71109"],
		"name" : "Beg Berkunci, Siliau"
	},
	{
		"postcode" : ["71150"],
		"name" : "Kampung Air Hitam"
	},
	{
		"postcode" : ["71159"],
		"name" : "Beg Berkunci"
	},
	{
		"postcode" : ["71200"],
		"name" : "Bandar Ekar Rantau"
	},
	{
		"postcode" : ["71209"],
		"name" : "Beg Berkunci"
	},
	{
		"postcode" : ["71250"],
		"name" : "Air Hitam"
	},
	{
		"postcode" : ["71259"],
		"name" : "Ladang Sengkang (Batu 14, 18 & 22)"
	},
	{
		"postcode" : ["71300"],
		"name" : "Ampang Batu Chembong"
	},
	{
		"postcode" : ["71309"],
		"name" : "Beg Berkunci"
	},
	{
		"postcode" : ["71350"],
		"name" : "Astana Raja"
	},
	{
		"postcode" : ["71359"],
		"name" : "Beg Berkunci"
	},
	{
		"postcode" : ["71400"],
		"name" : "Ayer Belerang"
	},
	{
		"postcode" : ["71409"],
		"name" : "Beg Berkunci, Pedas"
	},
	{
		"postcode" : ["71450"],
		"name" : "Bandar Seremban Selatan"
	},
	{
		"postcode" : ["71459"],
		"name" : "Beg Berkunci, Sungai Gadut"
	},
	{
		"postcode" : ["71500"],
		"name" : "Ampang Serong"
	},
	{
		"postcode" : ["71509"],
		"name" : "Beg Berkunci, Tanjung Ipoh"
	},
	{
		"postcode" : ["71550"],
		"name" : "Ampang Batu"
	},
	{
		"postcode" : ["71559"],
		"name" : "Beg Berkunci, Seri Menanti"
	},
	{
		"postcode" : ["71600"],
		"name" : "Kampung Amar Penghulu"
	},
	{
		"postcode" : ["71609"],
		"name" : "Taman Bukit Kempas"
	},
	{
		"postcode" : ["71650"],
		"name" : "Felda Titi"
	},
	{
		"postcode" : ["71659"],
		"name" : "Beg Berkunci, Titi"
	},
	{
		"postcode" : ["71700"],
		"name" : "Apartment Sri Palma"
	},
	{
		"postcode" : ["71707"],
		"name" : "Peti Surat"
	},
	{
		"postcode" : ["71709"],
		"name" : "Beg Berkunci"
	},
	{
		"postcode" : ["71750"],
		"name" : "Bandar Tasik Senangin"
	},
	{
		"postcode" : ["71759"],
		"name" : "Beg Berkunci, Lenggeng"
	},
	{
		"postcode" : ["71760"],
		"name" : "Bandar Baru Enstek"
	},
	{
		"postcode" : ["71770"],
		"name" : "Bandar Warisan Puteri"
	},
	{
		"postcode" : ["71800"],
		"name" : "Arab Malaysian Industrial Park"
	},
	{
		"postcode" : ["71807"],
		"name" : "Peti Surat"
	},
	{
		"postcode" : ["71809"],
		"name" : "Beg Berkunci"
	},
	{
		"postcode" : ["71900"],
		"name" : "Bukit Ara Perdana"
	},
	{
		"postcode" : ["71907"],
		"name" : "Peti Surat"
	},
	{
		"postcode" : ["71909"],
		"name" : "Beg Berkunci"
	},
	{
		"postcode" : ["71950"],
		"name" : "Bandar Sri Sendayan (Felda)"
	},
	{
		"postcode" : ["71960"],
		"name" : "Kampung Bakar Arang"
	},
	{
		"postcode" : ["72000"],
		"name" : "Kampung Acheh"
	},
	{
		"postcode" : ["72007"],
		"name" : "Peti Surat"
	},
	{
		"postcode" : ["72009"],
		"name" : "Beg Berkunci"
	},
	{
		"postcode" : ["72100"],
		"name" : "Bahau"
	},
	{
		"postcode" : ["72107"],
		"name" : "Peti Surat"
	},
	{
		"postcode" : ["72109"],
		"name" : "Beg Berkunci"
	},
	{
		"postcode" : ["72120"],
		"name" : "Ayer Hitam"
	},
	{
		"postcode" : ["72127"],
		"name" : "Peti Surat, Bandar Baru Serting"
	},
	{
		"postcode" : ["72129"],
		"name" : "Beg Berkunci, Bandar Baru Serting"
	},
	{
		"postcode" : ["72200"],
		"name" : "Ayer Dedali"
	},
	{
		"postcode" : ["72207"],
		"name" : "Peti Surat"
	},
	{
		"postcode" : ["72209"],
		"name" : "Beg Berkunci"
	},
	{
		"postcode" : ["72300"],
		"name" : "Felcra Kerangai - Penagoh"
	},
	{
		"postcode" : ["72307"],
		"name" : "Peti Surat"
	},
	{
		"postcode" : ["72309"],
		"name" : "Beg Berkunci"
	},
	{
		"postcode" : ["72400"],
		"name" : "Ayer Baning (Batu 52)"
	},
	{
		"postcode" : ["72409"],
		"name" : "Beg Berkunci"
	},
	{
		"postcode" : ["72500"],
		"name" : "Jalan Bahau (Batu 28 3/4)"
	},
	{
		"postcode" : ["72507"],
		"name" : "Peti Surat, Juasseh"
	},
	{
		"postcode" : ["72509"],
		"name" : "Beg Berkunci, Juasseh"
	},
	{
		"postcode" : ["73000"],
		"name" : "Kampung Anak Durian Daun"
	},
	{
		"postcode" : ["73007"],
		"name" : "Peti Surat"
	},
	{
		"postcode" : ["73009"],
		"name" : "Beg Berkunci"
	},
	{
		"postcode" : ["73100"],
		"name" : "Ayer Puteh (Batu 13)"
	},
	{
		"postcode" : ["73109"],
		"name" : "Beg Berkunci"
	},
	{
		"postcode" : ["73200"],
		"name" : "Bukit Rokan Utara"
	},
	{
		"postcode" : ["73207"],
		"name" : "Peti Surat"
	},
	{
		"postcode" : ["73209"],
		"name" : "Beg Berkunci"
	},
	{
		"postcode" : ["73300"],
		"name" : "Ayer Kuning Selatan"
	},
	{
		"postcode" : ["73309"],
		"name" : "Beg Berkunci, Batang Melaka"
	},
	{
		"postcode" : ["73400"],
		"name" : "Bangka Hulu"
	},
	{
		"postcode" : ["73409"],
		"name" : "Beg Berkunci"
	},
	{
		"postcode" : ["73420"],
		"name" : "Felda Pasir Besar"
	},
	{
		"postcode" : ["73430"],
		"name" : "Felda Palong (4 - 6)"
	},
	{
		"postcode" : ["73440"],
		"name" : "Felda Palong 1"
	},
	{
		"postcode" : ["73450"],
		"name" : "Felda Palong 2"
	},
	{
		"postcode" : ["73460"],
		"name" : "Felda Palong 3"
	},
	{
		"postcode" : ["73470"],
		"name" : "Felda Palong (7 - 8)"
	},
	{
		"postcode" : ["73480"],
		"name" : "Felda Jelai 1"
	},
	{
		"postcode" : ["73500"],
		"name" : "Bukit Tinggi Estate"
	},
	{
		"postcode" : ["73507"],
		"name" : "Peti Surat"
	},
	{
		"postcode" : ["73509"],
		"name" : "Beg Berkunci"
	}
]
