[
	{
		"postcode" : ["01000"],
		"name" : "Alor Redeh"
	},
	{
		"postcode" : ["01007"],
		"name" : "Peti Surat"
	},
	{
		"postcode" : ["01009"],
		"name" : "Beg Berkunci"
	},
	{
		"postcode" : ["01500"],
		"name" : "DYMM Tuanku Raja Perlis"
	},
	{
		"postcode" : ["01502"],
		"name" : "YAB Menteri Besar Perlis"
	},
	{
		"postcode" : ["01503"],
		"name" : "Setiausaha Kerajaan Negeri"
	},
	{
		"postcode" : ["01504"],
		"name" : "Biro Bantuan Guaman"
	},
	{
		"postcode" : ["01505"],
		"name" : "Biro Pengaduan Awam"
	},
	{
		"postcode" : ["01506"],
		"name" : "Mahkamah Sesyen"
	},
	{
		"postcode" : ["01508"],
		"name" : "Amanah Raya Berhad"
	},
	{
		"postcode" : ["01512"],
		"name" : "Penasihat Undang-Undang Negeri"
	},
	{
		"postcode" : ["01514"],
		"name" : "Jabatan Perangkaan"
	},
	{
		"postcode" : ["01516"],
		"name" : "Jabatan Pemegang Harta"
	},
	{
		"postcode" : ["01517"],
		"name" : "Jabatan Perpaduan Negara"
	},
	{
		"postcode" : ["01518"],
		"name" : "Jabatan Audit Negeri"
	},
	{
		"postcode" : ["01524"],
		"name" : "Setiausaha Keselamatan Negeri"
	},
	{
		"postcode" : ["01529"],
		"name" : "Unit Penyelidikan Sosio Ekonomi"
	},
	{
		"postcode" : ["01532"],
		"name" : "Jabatan Sumber Manusia"
	},
	{
		"postcode" : ["01538"],
		"name" : "Jabatan Keselamatan Sosial (Perkeso)"
	},
	{
		"postcode" : ["01540"],
		"name" : "Jabatan Tenaga Rakyat"
	},
	{
		"postcode" : ["01546"],
		"name" : "Pejabat Rela Negeri"
	},
	{
		"postcode" : ["01550"],
		"name" : "Jabatan Imigresen"
	},
	{
		"postcode" : ["01551"],
		"name" : "Jabatan Pendaftaran Negara"
	},
	{
		"postcode" : ["01556"],
		"name" : "Jabatan Pertahanan Awam"
	},
	{
		"postcode" : ["01560"],
		"name" : "Ketua Polis Negeri"
	},
	{
		"postcode" : ["01564"],
		"name" : "Jabatan Kebajikan Masyarakat"
	},
	{
		"postcode" : ["01570"],
		"name" : "Jabatan Belia & Sukan"
	},
	{
		"postcode" : ["01572"],
		"name" : "Perpustakaan Awam Negeri"
	},
	{
		"postcode" : ["01576"],
		"name" : "Jabatan Tanah & Galian"
	},
	{
		"postcode" : ["01578"],
		"name" : "Jabatan Ukur & Pemetaan"
	},
	{
		"postcode" : ["01582"],
		"name" : "Jabatan Kerja Raya"
	},
	{
		"postcode" : ["01586"],
		"name" : "Hospital Kangar"
	},
	{
		"postcode" : ["01590"],
		"name" : "Jabatan Kesihatan"
	},
	{
		"postcode" : ["01592"],
		"name" : "Pegawai Kewangan Negeri"
	},
	{
		"postcode" : ["01594"],
		"name" : "Akauntan Negeri"
	},
	{
		"postcode" : ["01596"],
		"name" : "Jabatan Kastam & Eksais Di Raja"
	},
	{
		"postcode" : ["01598"],
		"name" : "Kumpulan Wang Simpanan Pekerja"
	},
	{
		"postcode" : ["01600"],
		"name" : "Lembaga Hasil Dalam Negeri"
	},
	{
		"postcode" : ["01604"],
		"name" : "Jabatan Pendidikan"
	},
	{
		"postcode" : ["01606"],
		"name" : "Jabatan Kemajuan Masyarakat (Kemas)"
	},
	{
		"postcode" : ["01608"],
		"name" : "Jabatan Pembangunan Koperasi"
	},
	{
		"postcode" : ["01609"],
		"name" : "Pejabat Mara Negeri"
	},
	{
		"postcode" : ["01610"],
		"name" : "Bahagian Perlesenan - Kementerian Penerangan"
	},
	{
		"postcode" : ["01612"],
		"name" : "Jabatan Penerangan"
	},
	{
		"postcode" : ["01614"],
		"name" : "Jabatan Penyiaran"
	},
	{
		"postcode" : ["01620"],
		"name" : "Jabatan Pengangkutan Jalan"
	},
	{
		"postcode" : ["01622"],
		"name" : "Unit Penguatkuasa Kem. Perdagangan & Perindustrian"
	},
	{
		"postcode" : ["01626"],
		"name" : "Jabatan Pengairan & Saliran"
	},
	{
		"postcode" : ["01628"],
		"name" : "Jabatan Perikanan"
	},
	{
		"postcode" : ["01630"],
		"name" : "Jabatan Haiwan"
	},
	{
		"postcode" : ["01632"],
		"name" : "Jabatan Pertanian"
	},
	{
		"postcode" : ["01634"],
		"name" : "Panglima Markas 12 Briged"
	},
	{
		"postcode" : ["01644"],
		"name" : "Majlis Perbandaran Kangar"
	},
	{
		"postcode" : ["01646"],
		"name" : "Jabatan Perancang Bandar & Desa"
	},
	{
		"postcode" : ["01648"],
		"name" : "Jabatan Bomba & Penyelamat"
	},
	{
		"postcode" : ["01660"],
		"name" : "Jabatan Perhutanan"
	},
	{
		"postcode" : ["01664"],
		"name" : "Jabatan Perhilitan"
	},
	{
		"postcode" : ["01670"],
		"name" : "Pos Malaysia Berhad"
	},
	{
		"postcode" : ["01672"],
		"name" : "Telekom Malaysia Berhad"
	},
	{
		"postcode" : ["01673"],
		"name" : "Tenaga Nasional Berhad"
	},
	{
		"postcode" : ["01674"],
		"name" : "Pegawai Kemajuan Negeri"
	},
	{
		"postcode" : ["01676"],
		"name" : "Jabatan Agama Islam Perlis"
	},
	{
		"postcode" : ["01680"],
		"name" : "Dewan Undangan Negeri"
	},
	{
		"postcode" : ["01694"],
		"name" : "Jabatan Kebudayaan & Kesenian"
	},
	{
		"postcode" : ["02000"],
		"name" : "Al Marhom Kayang"
	},
	{
		"postcode" : ["02100"],
		"name" : "Aked Niaga"
	},
	{
		"postcode" : ["02200"],
		"name" : "Jalan Padang Besar (Batu 16)"
	},
	{
		"postcode" : ["02400"],
		"name" : "Beseri Dalam"
	},
	{
		"postcode" : ["02450"],
		"name" : "Bukit Keteri"
	},
	{
		"postcode" : ["02500"],
		"name" : "Balai Polis Mata Air"
	},
	{
		"postcode" : ["02600"],
		"name" : "Arau"
	},
	{
		"postcode" : ["02607"],
		"name" : "Peti Surat"
	},
	{
		"postcode" : ["02609"],
		"name" : "Beg Berkunci"
	},
	{
		"postcode" : ["02700"],
		"name" : "Bohor Mali"
	},
	{
		"postcode" : ["02707"],
		"name" : "Peti Surat"
	},
	{
		"postcode" : ["02709"],
		"name" : "Beg Berkunci"
	},
	{
		"postcode" : ["02800"],
		"name" : "Kampung Kepala Batas Pauh"
	}
]
