[
	{
		"postcode" : ["62000"],
		"name" : "Jalan Alamanda 1"
	},
	{
		"postcode" : ["62007"],
		"name" : "Badan Pencegah Rasuah"
	},
	{
		"postcode" : ["62050"],
		"name" : "Bahagian Pilihanraya Parlimen P125 Putrajaya"
	},
	{
		"postcode" : ["62100"],
		"name" : "Jalan Al Biruni P3 K (Jalan P3 K)"
	},
	{
		"postcode" : ["62150"],
		"name" : "Jalan Abadi P20 (Jalan P20)"
	},
	{
		"postcode" : ["62200"],
		"name" : "Former Prime Minister Of Malaysia"
	},
	{
		"postcode" : ["62250"],
		"name" : "Jalan Berlian P10/10 (Jalan P10/10)"
	},
	{
		"postcode" : ["62300"],
		"name" : "Bahagian Kerja Tanah Jabatan Perdana Menteri"
	},
	{
		"postcode" : ["62502"],
		"name" : "Bahagian Keselamatan Negara Jabatan Perdana Menteri"
	},
	{
		"postcode" : ["62504"],
		"name" : "Biro Pengaduan Awam"
	},
	{
		"postcode" : ["62505"],
		"name" : "Mahkamah Majistret Kajang"
	},
	{
		"postcode" : ["62506"],
		"name" : "Jabatan Perkhidmatan Awam"
	},
	{
		"postcode" : ["62510"],
		"name" : "Jabatan Peguam Negara"
	},
	{
		"postcode" : ["62512"],
		"name" : "Jabatan Perangkaan Malaysia"
	},
	{
		"postcode" : ["62514"],
		"name" : "Jabatan Insolvensi Malaysia/Jabatan Pemegang Harta"
	},
	{
		"postcode" : ["62516"],
		"name" : "Jabatan Perpaduan Negara Dan Integrasi Nasional"
	},
	{
		"postcode" : ["62517"],
		"name" : "Pejabat Ketua Audit Negara"
	},
	{
		"postcode" : ["62518"],
		"name" : "Jabatan Kemajuan Islam Malaysia (JAKIM)"
	},
	{
		"postcode" : ["62519"],
		"name" : "Jabatan Wakaf Zakat Dan Haji"
	},
	{
		"postcode" : ["62520"],
		"name" : "Pusat Pengajian Pembangunan Malaysia"
	},
	{
		"postcode" : ["62522"],
		"name" : "Pejabat Ketua Pegawai Keselamatan Kerajaan"
	},
	{
		"postcode" : ["62524"],
		"name" : "Suruhanjaya Perkhidmatan Pelajaran"
	},
	{
		"postcode" : ["62526"],
		"name" : "Unit Pemodenan Tadbiran Perancangan & Pengurusan Malaysia(MAMPU)"
	},
	{
		"postcode" : ["62527"],
		"name" : "Jabatan Pembangunan Kemahiran"
	},
	{
		"postcode" : ["62530"],
		"name" : "Jabatan Hal Ehwal Kesatuan Sekerja"
	},
	{
		"postcode" : ["62532"],
		"name" : "Jabatan Perhubungan Perusahaan"
	},
	{
		"postcode" : ["62536"],
		"name" : "Jabatan Tenaga Manusia"
	},
	{
		"postcode" : ["62540"],
		"name" : "Pendaftar Kesatuan Sekerja"
	},
	{
		"postcode" : ["62542"],
		"name" : "Jabatan Pendaftaran Pertubuhan"
	},
	{
		"postcode" : ["62546"],
		"name" : "Kementerian Hal Ehwal Dalam Negeri"
	},
	{
		"postcode" : ["62550"],
		"name" : "Ketua Pengarah Jabatan Imigresen Malaysia"
	},
	{
		"postcode" : ["62551"],
		"name" : "Jabatan Belia Dan Sukan Negara"
	},
	{
		"postcode" : ["62570"],
		"name" : "Jabatan Alam Sekitar"
	},
	{
		"postcode" : ["62574"],
		"name" : "Kementerian Sumber Asli Dan Alam Sekitar"
	},
	{
		"postcode" : ["62576"],
		"name" : "Jabatan Ukur & Pemetaan"
	},
	{
		"postcode" : ["62582"],
		"name" : "Jabatan Kawalan Penyakit Bawaan Vektor"
	},
	{
		"postcode" : ["62584"],
		"name" : "Kementerian Kesihatan"
	},
	{
		"postcode" : ["62590"],
		"name" : "Kementerian Kewangan"
	},
	{
		"postcode" : ["62592"],
		"name" : "Jabatan Akauntan Negara"
	},
	{
		"postcode" : ["62596"],
		"name" : "Ibu Pejabat Jabatan Kastam Diraja Malaysia"
	},
	{
		"postcode" : ["62602"],
		"name" : "Bahagian Biasiswa Kementerian Pelajaran"
	},
	{
		"postcode" : ["62604"],
		"name" : "Bahagian Kewangan Kementerian Pelajaran"
	},
	{
		"postcode" : ["62605"],
		"name" : "Jabatan Kemajuan Masayarakat"
	},
	{
		"postcode" : ["62606"],
		"name" : "Kementerian Kemajuan Luar Bandar Dan Wilayah"
	},
	{
		"postcode" : ["62616"],
		"name" : "Jabatan Penerbangan Awam"
	},
	{
		"postcode" : ["62618"],
		"name" : "Ketua Pengarah Jabatan Pengangkutan Jalan"
	},
	{
		"postcode" : ["62620"],
		"name" : "Kementerian Perdagangan Dalam Negeri Dan Hal Ehwal Pengguna"
	},
	{
		"postcode" : ["62623"],
		"name" : "Kementerian Pertanian Dan Industri Asas Tani"
	},
	{
		"postcode" : ["62624"],
		"name" : "Jabatan Perikanan"
	},
	{
		"postcode" : ["62628"],
		"name" : "Jabatan Haiwan"
	},
	{
		"postcode" : ["62630"],
		"name" : "Jabatan Pertanian"
	},
	{
		"postcode" : ["62632"],
		"name" : "Ketua Pengarah Jabatan Bomba Malaysia"
	},
	{
		"postcode" : ["62648"],
		"name" : "Kementerian Pembangunan Usahawan Dan Koperasi"
	},
	{
		"postcode" : ["62652"],
		"name" : "Kementerian Perusahaan Perladangan Dan Komoditi"
	},
	{
		"postcode" : ["62654"],
		"name" : "Jabatan Standard Malaysia"
	},
	{
		"postcode" : ["62662"],
		"name" : "Jabatan Bekalan Air"
	},
	{
		"postcode" : ["62668"],
		"name" : "Kementerian Tenaga, Air Dan Komunikasi"
	},
	{
		"postcode" : ["62670"],
		"name" : "Bahagian Kemajuan Wilayah Persekutuan"
	},
	{
		"postcode" : ["62674"],
		"name" : "Perbadanan Putrajaya"
	},
	{
		"postcode" : ["62675"],
		"name" : "Jabatan Agama Islam Wilayah Putrajaya"
	},
	{
		"postcode" : ["62676"],
		"name" : "Jabatan Kehakiman Syariah Malaysia"
	},
	{
		"postcode" : ["62677"],
		"name" : "Suruhanjaya Kehakiman"
	},
	{
		"postcode" : ["62686"],
		"name" : "Suruhanjaya Pilihan Raya Malaysia"
	},
	{
		"postcode" : ["62692"],
		"name" : "Bahagian Hal Ehwal Undang-undang"
	},
	{
		"postcode" : ["62988"],
		"name" : "Cyberjaya"
	}
]
