[
	{
		"postcode" : ["88000"],
		"name" : "Bangunan Api-Api"
	},
	{
		"postcode" : ["88100"],
		"name" : "Anjung Perdana"
	},
	{
		"postcode" : ["88200"],
		"name" : "Airport View Hotel"
	},
	{
		"postcode" : ["88300"],
		"name" : "Ahzam Villa"
	},
	{
		"postcode" : ["88400"],
		"name" : "Apartment Bay Shore"
	},
	{
		"postcode" : ["88450"],
		"name" : "1 Borneo"
	},
	{
		"postcode" : ["88460"],
		"name" : "Jalan 3 KKIP Timur"
	},
	{
		"postcode" : ["88500"],
		"name" : "TYT Yang Di Pertua Negeri Sabah"
	},
	{
		"postcode" : ["88502"],
		"name" : "YAB Ketua Menteri Sabah"
	},
	{
		"postcode" : ["88504"],
		"name" : "Biro Bantuan Guaman"
	},
	{
		"postcode" : ["88505"],
		"name" : "Biro Pengaduan Awam"
	},
	{
		"postcode" : ["88506"],
		"name" : "Mahkamah Tinggi"
	},
	{
		"postcode" : ["88508"],
		"name" : "Amanah Raya Berhad"
	},
	{
		"postcode" : ["88510"],
		"name" : "Jabatan Perkhidmatan Awam"
	},
	{
		"postcode" : ["88512"],
		"name" : "Jabatan Peguam Negara"
	},
	{
		"postcode" : ["88514"],
		"name" : "Jabatan Perangkaan"
	},
	{
		"postcode" : ["88516"],
		"name" : "Jabatan Pemegang Harta"
	},
	{
		"postcode" : ["88518"],
		"name" : "Ketua Audit Negeri"
	},
	{
		"postcode" : ["88520"],
		"name" : "Suruhanjaya Perkhidmatan Awam Persekutuan"
	},
	{
		"postcode" : ["88526"],
		"name" : "Suruhanjaya Perkhidmatan Pendidikan"
	},
	{
		"postcode" : ["88527"],
		"name" : "Unit Pentadbiran & Perancangan Pengurusan"
	},
	{
		"postcode" : ["88532"],
		"name" : "Jabatan Sumber Manusia"
	},
	{
		"postcode" : ["88534"],
		"name" : "Jabatan Kilang & Jentera"
	},
	{
		"postcode" : ["88538"],
		"name" : "Jabatan Keselamatan Sosial (Perkeso)"
	},
	{
		"postcode" : ["88540"],
		"name" : "Jabatan Tenaga Rakyat"
	},
	{
		"postcode" : ["88546"],
		"name" : "Pejabat Rela Negeri"
	},
	{
		"postcode" : ["88550"],
		"name" : "Jabatan Imigresen"
	},
	{
		"postcode" : ["88551"],
		"name" : "Jabatan Pendaftaran Negara"
	},
	{
		"postcode" : ["88552"],
		"name" : "Jabatan Pendaftar Pertubuhan"
	},
	{
		"postcode" : ["88554"],
		"name" : "Percetakan Nasional Berhad"
	},
	{
		"postcode" : ["88556"],
		"name" : "Jabatan Pertahanan Awam"
	},
	{
		"postcode" : ["88558"],
		"name" : "Jabatan Penjara"
	},
	{
		"postcode" : ["88560"],
		"name" : "Ketua Polis Negeri"
	},
	{
		"postcode" : ["88562"],
		"name" : "Kementerian Kebajikan Masyarakat Sabah"
	},
	{
		"postcode" : ["88564"],
		"name" : "Jabatan Kebajikan Masyarakat"
	},
	{
		"postcode" : ["88566"],
		"name" : "Jabatan Muzium"
	},
	{
		"postcode" : ["88568"],
		"name" : "Jabatan Arkib Negara"
	},
	{
		"postcode" : ["88570"],
		"name" : "Kementerian Belia Dan Sukan Sabah"
	},
	{
		"postcode" : ["88572"],
		"name" : "Perpustakaan Awam Negeri"
	},
	{
		"postcode" : ["88576"],
		"name" : "Jabatan Tanah & Ukur"
	},
	{
		"postcode" : ["88580"],
		"name" : "Kementerian Perhubungan & Kerja Raya Sabah"
	},
	{
		"postcode" : ["88582"],
		"name" : "Jabatan Kerja Raya"
	},
	{
		"postcode" : ["88586"],
		"name" : "Hospital Queen Elizabeth"
	},
	{
		"postcode" : ["88590"],
		"name" : "Jabatan Kesihatan"
	},
	{
		"postcode" : ["88592"],
		"name" : "Jabatan Kewangan Persekutuan"
	},
	{
		"postcode" : ["88594"],
		"name" : "Akauntan Negara"
	},
	{
		"postcode" : ["88596"],
		"name" : "Jabatan Kastam & Eksais Di Raja"
	},
	{
		"postcode" : ["88598"],
		"name" : "Kumpulan Wang Simpanan Pekerja"
	},
	{
		"postcode" : ["88600"],
		"name" : "Lembaga Hasil Dalam Negeri"
	},
	{
		"postcode" : ["88602"],
		"name" : "Pejabat Perhubungan Sabah/Kuala Lumpur"
	},
	{
		"postcode" : ["88604"],
		"name" : "Jabatan Pendidikan"
	},
	{
		"postcode" : ["88606"],
		"name" : "Kementerian Pembangunan Negara & Luar Bandar Sabah"
	},
	{
		"postcode" : ["88608"],
		"name" : "Jabatan Pembangunan Koperasi"
	},
	{
		"postcode" : ["88609"],
		"name" : "Pejabat Mara Negeri"
	},
	{
		"postcode" : ["88610"],
		"name" : "Bahagian Perlesenan - Kementerian Penerangan"
	},
	{
		"postcode" : ["88612"],
		"name" : "Jabatan Penerangan"
	},
	{
		"postcode" : ["88614"],
		"name" : "Jabatan Penyiaran"
	},
	{
		"postcode" : ["88617"],
		"name" : "Lembaga Pelabuhan Sabah"
	},
	{
		"postcode" : ["88618"],
		"name" : "Jabatan Penerbangan Awam"
	},
	{
		"postcode" : ["88620"],
		"name" : "Jabatan Pengangkutan Jalan"
	},
	{
		"postcode" : ["88621"],
		"name" : "Jabatan Keratapi Sabah"
	},
	{
		"postcode" : ["88622"],
		"name" : "Penguatkuasa Kementerian Perdagangan Dalam Negeri"
	},
	{
		"postcode" : ["88624"],
		"name" : "Kementerian Pertanian & Perikanan Sabah"
	},
	{
		"postcode" : ["88626"],
		"name" : "Jabatan Pengairan & Saliran"
	},
	{
		"postcode" : ["88628"],
		"name" : "Jabatan Perikanan"
	},
	{
		"postcode" : ["88630"],
		"name" : "Jabatan Haiwan"
	},
	{
		"postcode" : ["88632"],
		"name" : "Jabatan Pertanian"
	},
	{
		"postcode" : ["88634"],
		"name" : "Briget Kelima Infantri Malaysia"
	},
	{
		"postcode" : ["88644"],
		"name" : "Kementerian Kerajaan Tempatan Sabah"
	},
	{
		"postcode" : ["88646"],
		"name" : "Jabatan Perancang Bandar & Desa"
	},
	{
		"postcode" : ["88648"],
		"name" : "Jabatan Bomba & Penyelamat"
	},
	{
		"postcode" : ["88656"],
		"name" : "Jabatan Galian"
	},
	{
		"postcode" : ["88658"],
		"name" : "Jabatan Kajibumi"
	},
	{
		"postcode" : ["88660"],
		"name" : "Jabatan Perhutanan"
	},
	{
		"postcode" : ["88661"],
		"name" : "Padi & Beras Nasional (Bernas)"
	},
	{
		"postcode" : ["88662"],
		"name" : "Jabatan Alam Sekitar Negeri"
	},
	{
		"postcode" : ["88670"],
		"name" : "Pos Malaysia Berhad"
	},
	{
		"postcode" : ["88672"],
		"name" : "Telekom Malaysia Berhad"
	},
	{
		"postcode" : ["88673"],
		"name" : "Sabah Electricity Sendirian Berhad"
	},
	{
		"postcode" : ["88675"],
		"name" : "Dewan Bandaraya Kota Kinabalu"
	},
	{
		"postcode" : ["88676"],
		"name" : "Majlis Agama Islam Sabah"
	},
	{
		"postcode" : ["88680"],
		"name" : "Dewan Undangan Negeri"
	},
	{
		"postcode" : ["88690"],
		"name" : "Suruhanjaya Pilihanraya Negeri"
	},
	{
		"postcode" : ["88700"],
		"name" : "Peti Surat 1 - 530"
	},
	{
		"postcode" : ["88721"],
		"name" : "Peti Surat 50001 - 50080"
	},
	{
		"postcode" : ["88722"],
		"name" : "Peti Surat 50081 - 50300"
	},
	{
		"postcode" : ["88723"],
		"name" : "Peti Surat 50301 - 50450"
	},
	{
		"postcode" : ["88724"],
		"name" : "Peti Surat 50451 - 50500"
	},
	{
		"postcode" : ["88725"],
		"name" : "Peti Surat 50501 - 50800"
	},
	{
		"postcode" : ["88757"],
		"name" : "Peti Surat 20001 - 20100, Luyang"
	},
	{
		"postcode" : ["88758"],
		"name" : "Peti Surat 20101 - 20200, Luyang"
	},
	{
		"postcode" : ["88759"],
		"name" : "Peti Surat 20201 - 20300, Luyang"
	},
	{
		"postcode" : ["88760"],
		"name" : "Peti Surat 20301 - 20400, Luyang"
	},
	{
		"postcode" : ["88761"],
		"name" : "Peti Surat 20401 - 20500, Luyang"
	},
	{
		"postcode" : ["88762"],
		"name" : "Peti Surat 20501 - 20580, Luyang"
	},
	{
		"postcode" : ["88763"],
		"name" : "Peti Surat 20581 - 20680, Luyang"
	},
	{
		"postcode" : ["88764"],
		"name" : "Peti Surat 20681 - 20780, Luyang"
	},
	{
		"postcode" : ["88765"],
		"name" : "Peti Surat 20781 - 20880, Luyang"
	},
	{
		"postcode" : ["88766"],
		"name" : "Peti Surat 20881 - 20960, Luyang"
	},
	{
		"postcode" : ["88767"],
		"name" : "Peti Surat 20961 - 21060, Luyang"
	},
	{
		"postcode" : ["88768"],
		"name" : "Peti Surat 21061 - 21160, Luyang"
	},
	{
		"postcode" : ["88769"],
		"name" : "Peti Surat 21161 - 21240, Luyang"
	},
	{
		"postcode" : ["88770"],
		"name" : "Peti Surat 21241 - 21320, Luyang"
	},
	{
		"postcode" : ["88771"],
		"name" : "Peti Surat 21321 - 21420, Luyang"
	},
	{
		"postcode" : ["88772"],
		"name" : "Peti Surat 21421 - 21520, Luyang"
	},
	{
		"postcode" : ["88773"],
		"name" : "Peti Surat 21521 - 21600, Luyang"
	},
	{
		"postcode" : ["88774"],
		"name" : "Peti Surat 21601 - 21700, Luyang"
	},
	{
		"postcode" : ["88775"],
		"name" : "Peti Surat 21701 - 21800, Luyang"
	},
	{
		"postcode" : ["88776"],
		"name" : "Peti Surat 21801 - 21900, Luyang"
	},
	{
		"postcode" : ["88777"],
		"name" : "Peti Surat 21901 - 21980, Luyang"
	},
	{
		"postcode" : ["88778"],
		"name" : "Peti Surat 21981 - 22060, Luyang"
	},
	{
		"postcode" : ["88779"],
		"name" : "Peti Surat 22061 - 22140, Luyang"
	},
	{
		"postcode" : ["88780"],
		"name" : "Peti Surat 22141 - 22220, Luyang"
	},
	{
		"postcode" : ["88781"],
		"name" : "Peti Surat 22221 - 22300, Luyang"
	},
	{
		"postcode" : ["88782"],
		"name" : "Peti Surat 22301 - 22380, Luyang"
	},
	{
		"postcode" : ["88783"],
		"name" : "Peti Surat 22381 - 22460, Luyang"
	},
	{
		"postcode" : ["88784"],
		"name" : "Peti Surat 22461 - 22540, Luyang"
	},
	{
		"postcode" : ["88785"],
		"name" : "Peti Surat 22541 - 22620, Luyang"
	},
	{
		"postcode" : ["88786"],
		"name" : "Peti Surat 22621 - 22700, Luyang"
	},
	{
		"postcode" : ["88787"],
		"name" : "Peti Surat 22701 - 22800, Luyang"
	},
	{
		"postcode" : ["88788"],
		"name" : "Peti Surat 22801 - 22880, Luyang"
	},
	{
		"postcode" : ["88789"],
		"name" : "Peti Surat 22881 - 22980, Luyang"
	},
	{
		"postcode" : ["88790"],
		"name" : "Peti Surat 22981 - 23080, Luyang"
	},
	{
		"postcode" : ["88800"],
		"name" : "Peti Surat 10001 - 10050"
	},
	{
		"postcode" : ["88801"],
		"name" : "Peti Surat 10051 - 10170"
	},
	{
		"postcode" : ["88802"],
		"name" : "Peti Surat 10171 - 10250"
	},
	{
		"postcode" : ["88803"],
		"name" : "Peti Surat 10251 - 10370"
	},
	{
		"postcode" : ["88804"],
		"name" : "Peti Surat 10371 - 10430"
	},
	{
		"postcode" : ["88805"],
		"name" : "Peti Surat 10431 - 10530"
	},
	{
		"postcode" : ["88806"],
		"name" : "Peti Surat 10531 - 10630"
	},
	{
		"postcode" : ["88807"],
		"name" : "Peti Surat 10631 - 10730"
	},
	{
		"postcode" : ["88808"],
		"name" : "Peti Surat 10731 - 10810"
	},
	{
		"postcode" : ["88809"],
		"name" : "Peti Surat 10811 - 10890"
	},
	{
		"postcode" : ["88810"],
		"name" : "Peti Surat 10891 - 10990"
	},
	{
		"postcode" : ["88811"],
		"name" : "Peti Surat 10991 - 11090"
	},
	{
		"postcode" : ["88812"],
		"name" : "Peti Surat 11091 - 11190"
	},
	{
		"postcode" : ["88813"],
		"name" : "Peti Surat 11191 - 11270"
	},
	{
		"postcode" : ["88814"],
		"name" : "Peti Surat 11271 - 11330"
	},
	{
		"postcode" : ["88815"],
		"name" : "Peti Surat 11331 - 11430"
	},
	{
		"postcode" : ["88816"],
		"name" : "Peti Surat 11431 - 11530"
	},
	{
		"postcode" : ["88817"],
		"name" : "Peti Surat 11531 - 11630"
	},
	{
		"postcode" : ["88818"],
		"name" : "Peti Surat 11631 - 11710"
	},
	{
		"postcode" : ["88819"],
		"name" : "Peti Surat 11711 - 11790"
	},
	{
		"postcode" : ["88820"],
		"name" : "Peti Surat 11791 - 11890"
	},
	{
		"postcode" : ["88821"],
		"name" : "Peti Surat 11891 - 11990"
	},
	{
		"postcode" : ["88822"],
		"name" : "Peti Surat 11991 - 12090"
	},
	{
		"postcode" : ["88823"],
		"name" : "Peti Surat 12091 - 12160"
	},
	{
		"postcode" : ["88824"],
		"name" : "Peti Surat 12161 - 12210"
	},
	{
		"postcode" : ["88825"],
		"name" : "Peti Surat 12211 - 12310"
	},
	{
		"postcode" : ["88826"],
		"name" : "Peti Surat 12311 - 12410"
	},
	{
		"postcode" : ["88827"],
		"name" : "Peti Surat 12411 - 12510"
	},
	{
		"postcode" : ["88828"],
		"name" : "Peti Surat 12511 - 12590"
	},
	{
		"postcode" : ["88829"],
		"name" : "Peti Surat 12591 - 12670"
	},
	{
		"postcode" : ["88830"],
		"name" : "Peti Surat 12671 - 12770"
	},
	{
		"postcode" : ["88831"],
		"name" : "Peti Surat 12771 - 12870"
	},
	{
		"postcode" : ["88832"],
		"name" : "Peti Surat 12871 - 12970"
	},
	{
		"postcode" : ["88833"],
		"name" : "Peti Surat 12971 - 13050"
	},
	{
		"postcode" : ["88834"],
		"name" : "Peti Surat 13051 - 13110"
	},
	{
		"postcode" : ["88835"],
		"name" : "Peti Surat 13111 - 13190"
	},
	{
		"postcode" : ["88836"],
		"name" : "Peti Surat 13191 - 13270"
	},
	{
		"postcode" : ["88837"],
		"name" : "Peti Surat 13271 - 13360"
	},
	{
		"postcode" : ["88838"],
		"name" : "Peti Surat 13361 - 13440"
	},
	{
		"postcode" : ["88839"],
		"name" : "Peti Surat 13441 - 13530"
	},
	{
		"postcode" : ["88840"],
		"name" : "Peti Surat 13531 - 13610"
	},
	{
		"postcode" : ["88841"],
		"name" : "Peti Surat 13611 - 13690"
	},
	{
		"postcode" : ["88842"],
		"name" : "Peti Surat 13691 - 13720"
	},
	{
		"postcode" : ["88843"],
		"name" : "Peti Surat 13721 - 13800"
	},
	{
		"postcode" : ["88844"],
		"name" : "Peti Surat 13801 - 13880"
	},
	{
		"postcode" : ["88845"],
		"name" : "Peti Surat 13881 - 13970"
	},
	{
		"postcode" : ["88846"],
		"name" : "Peti Surat 13971 - 14070"
	},
	{
		"postcode" : ["88847"],
		"name" : "Peti Surat 14071 - 14180"
	},
	{
		"postcode" : ["88848"],
		"name" : "Peti Surat 14181 - 14280"
	},
	{
		"postcode" : ["88849"],
		"name" : "Peti Surat 14281 - 14360"
	},
	{
		"postcode" : ["88850"],
		"name" : "Peti Surat 14361 - 14460"
	},
	{
		"postcode" : ["88851"],
		"name" : "Peti Surat 14461 - 14540"
	},
	{
		"postcode" : ["88852"],
		"name" : "Peti Surat 14541 - 14610"
	},
	{
		"postcode" : ["88853"],
		"name" : "Peti Surat 14611 - 14690"
	},
	{
		"postcode" : ["88854"],
		"name" : "Peti Surat 14691 - 14770"
	},
	{
		"postcode" : ["88855"],
		"name" : "Peti Surat 14771 - 14870"
	},
	{
		"postcode" : ["88856"],
		"name" : "Peti Surat 1 - 630"
	},
	{
		"postcode" : ["88857"],
		"name" : "Peti Surat 1 - 500"
	},
	{
		"postcode" : ["88858"],
		"name" : "Peti Surat 1 - 690"
	},
	{
		"postcode" : ["88860"],
		"name" : "Peti Surat 15001 - 15120"
	},
	{
		"postcode" : ["88861"],
		"name" : "Peti Surat 15121 - 15180"
	},
	{
		"postcode" : ["88862"],
		"name" : "Peti Surat 15181 - 15260"
	},
	{
		"postcode" : ["88863"],
		"name" : "Peti Surat 15261 - 15460"
	},
	{
		"postcode" : ["88865"],
		"name" : "Peti Surat 15461 - 15600"
	},
	{
		"postcode" : ["88866"],
		"name" : "Peti Surat 15681 - 15800"
	},
	{
		"postcode" : ["88867"],
		"name" : "Peti Surat 15801 - 16020"
	},
	{
		"postcode" : ["88868"],
		"name" : "Peti Surat 16021 - 16100"
	},
	{
		"postcode" : ["88869"],
		"name" : "Peti Surat 16101 - 16300"
	},
	{
		"postcode" : ["88870"],
		"name" : "Peti Surat 16301 - 16560"
	},
	{
		"postcode" : ["88871"],
		"name" : "Peti Surat 16561 - 16640"
	},
	{
		"postcode" : ["88872"],
		"name" : "Peti Surat 16641 - 17160"
	},
	{
		"postcode" : ["88873"],
		"name" : "Peti Surat 17161 - 17680"
	},
	{
		"postcode" : ["88874"],
		"name" : "Peti Surat 17681 - 18120"
	},
	{
		"postcode" : ["88875"],
		"name" : "Peti Surat 18121 - 18640"
	},
	{
		"postcode" : ["88900"],
		"name" : "Kota Kinabalu - Tiket Serahan Tingkap 1 - 100"
	},
	{
		"postcode" : ["88901"],
		"name" : "Kota Kinabalu - Tiket Serahan Tingkap 101 - 200"
	},
	{
		"postcode" : ["88902"],
		"name" : "Kota Kinabalu - Tiket Serahan Tingkap 201 - 300"
	},
	{
		"postcode" : ["88903"],
		"name" : "Kota Kinabalu - Tiket Serahan Tingkap 301 - 400"
	},
	{
		"postcode" : ["88904"],
		"name" : "Kota Kinabalu - Tiket Serahan Tingkap 401 - 500"
	},
	{
		"postcode" : ["88905"],
		"name" : "Kota Kinabalu - Tiket Serahan Tingkap 501 - 600"
	},
	{
		"postcode" : ["88906"],
		"name" : "Kota Kinabalu - Tiket Serahan Tingkap 601 - 700"
	},
	{
		"postcode" : ["88988"],
		"name" : "Badan Pencegah Rasuah"
	},
	{
		"postcode" : ["88990"],
		"name" : "Beg Berkunci 1 - 30"
	},
	{
		"postcode" : ["88991"],
		"name" : "Beg Berkunci 31 - 60"
	},
	{
		"postcode" : ["88992"],
		"name" : "Beg Berkunci 61 - 90"
	},
	{
		"postcode" : ["88993"],
		"name" : "Beg Berkunci 91 - 120"
	},
	{
		"postcode" : ["88994"],
		"name" : "Beg Berkunci 121 - 150"
	},
	{
		"postcode" : ["88995"],
		"name" : "Beg Berkunci 151 - 180"
	},
	{
		"postcode" : ["88996"],
		"name" : "Beg Berkunci 181 - 210"
	},
	{
		"postcode" : ["88997"],
		"name" : "Beg Berkunci 211 - 240"
	},
	{
		"postcode" : ["88998"],
		"name" : "Beg Berkunci 2001 - 2026"
	},
	{
		"postcode" : ["88999"],
		"name" : "Beg Berkunci 2027 - 2080"
	},
	{
		"postcode" : ["89000"],
		"name" : "Apin-Apin"
	},
	{
		"postcode" : ["89007"],
		"name" : "Peti Surat"
	},
	{
		"postcode" : ["89008"],
		"name" : "Keningau - Tiket Serahan Tingkap"
	},
	{
		"postcode" : ["89009"],
		"name" : "Beg Berkunci"
	},
	{
		"postcode" : ["89050"],
		"name" : "Banggi"
	},
	{
		"postcode" : ["89057"],
		"name" : "Peti Surat"
	},
	{
		"postcode" : ["89058"],
		"name" : "Kudat - Tiket Serahan Tingkap"
	},
	{
		"postcode" : ["89059"],
		"name" : "Beg Berkunci"
	},
	{
		"postcode" : ["89100"],
		"name" : "Bengkoka"
	},
	{
		"postcode" : ["89107"],
		"name" : "Peti Surat"
	},
	{
		"postcode" : ["89108"],
		"name" : "Kota Marudu - Serahan Tingkap"
	},
	{
		"postcode" : ["89109"],
		"name" : "Beg Berkunci"
	},
	{
		"postcode" : ["89130"],
		"name" : "Pingan-Pingan"
	},
	{
		"postcode" : ["89137"],
		"name" : "Peti Surat, Pingan-Pingan"
	},
	{
		"postcode" : ["89138"],
		"name" : "Pingan-Pingan - Serahan Tingkap"
	},
	{
		"postcode" : ["89139"],
		"name" : "Beg Berkunci, Pingan-Pingan"
	},
	{
		"postcode" : ["89150"],
		"name" : "Kadamaian"
	},
	{
		"postcode" : ["89157"],
		"name" : "Peti Surat"
	},
	{
		"postcode" : ["89158"],
		"name" : "Kota Belud - Tiket Serahan Tingkap"
	},
	{
		"postcode" : ["89159"],
		"name" : "Beg Berkunci"
	},
	{
		"postcode" : ["89200"],
		"name" : "Berungis"
	},
	{
		"postcode" : ["89207"],
		"name" : "Peti Surat"
	},
	{
		"postcode" : ["89208"],
		"name" : "Tuaran - Tiket Serahan Tingkap"
	},
	{
		"postcode" : ["89209"],
		"name" : "Beg Berkunci"
	},
	{
		"postcode" : ["89250"],
		"name" : "Kampung Kiulu"
	},
	{
		"postcode" : ["89257"],
		"name" : "Peti Surat"
	},
	{
		"postcode" : ["89258"],
		"name" : "Tamparuli - Tiket Serahan Tingkap"
	},
	{
		"postcode" : ["89259"],
		"name" : "Beg Berkunci"
	},
	{
		"postcode" : ["89260"],
		"name" : "Peti Surat, Bongawan"
	},
	{
		"postcode" : ["89300"],
		"name" : "Kampung Bangkod"
	},
	{
		"postcode" : ["89307"],
		"name" : "Peti Surat"
	},
	{
		"postcode" : ["89308"],
		"name" : "Ranau - Serahan Tingkap"
	},
	{
		"postcode" : ["89309"],
		"name" : "Beg Berkunci"
	},
	{
		"postcode" : ["89320"],
		"name" : "Telupid"
	},
	{
		"postcode" : ["89327"],
		"name" : "Peti Surat, Telupid"
	},
	{
		"postcode" : ["89328"],
		"name" : "Telupid - Serahan Tingkap"
	},
	{
		"postcode" : ["89329"],
		"name" : "Beg Berkunci, Telupid"
	},
	{
		"postcode" : ["89330"],
		"name" : "Tongod"
	},
	{
		"postcode" : ["89337"],
		"name" : "Peti Surat, Tongod"
	},
	{
		"postcode" : ["89338"],
		"name" : "Tongod - Serahan Tingkap"
	},
	{
		"postcode" : ["89339"],
		"name" : "Beg Berkunci, Tongod"
	},
	{
		"postcode" : ["89500"],
		"name" : "Jalan Penampang"
	},
	{
		"postcode" : ["89507"],
		"name" : "Peti Surat"
	},
	{
		"postcode" : ["89508"],
		"name" : "Penampang - Tiket Serahan Tingkap"
	},
	{
		"postcode" : ["89509"],
		"name" : "Beg Berkunci"
	},
	{
		"postcode" : ["89600"],
		"name" : "Kampung Benoni"
	},
	{
		"postcode" : ["89607"],
		"name" : "Peti Surat"
	},
	{
		"postcode" : ["89608"],
		"name" : "Papar - Tiket Serahan Tingkap"
	},
	{
		"postcode" : ["89609"],
		"name" : "Beg Berkunci"
	},
	{
		"postcode" : ["89650"],
		"name" : "Kampung Kapayan"
	},
	{
		"postcode" : ["89657"],
		"name" : "Peti Surat"
	},
	{
		"postcode" : ["89658"],
		"name" : "Tambunan - Tiket Serahan Tingkap"
	},
	{
		"postcode" : ["89659"],
		"name" : "Beg Berkunci"
	},
	{
		"postcode" : ["89700"],
		"name" : "Bongawan"
	},
	{
		"postcode" : ["89707"],
		"name" : "Peti Surat"
	},
	{
		"postcode" : ["89708"],
		"name" : "Bongawan - Tiket Serahan Tingkap"
	},
	{
		"postcode" : ["89709"],
		"name" : "Bongawan - Karung Berkunci"
	},
	{
		"postcode" : ["89720"],
		"name" : "Kampung Binsulok"
	},
	{
		"postcode" : ["89727"],
		"name" : "Peti Surat"
	},
	{
		"postcode" : ["89728"],
		"name" : "Membakut - Tiket Serahan Tingkap"
	},
	{
		"postcode" : ["89729"],
		"name" : "Beg Berkunci"
	},
	{
		"postcode" : ["89740"],
		"name" : "Kampung Batu Lintang"
	},
	{
		"postcode" : ["89747"],
		"name" : "Peti Surat"
	},
	{
		"postcode" : ["89748"],
		"name" : "Kuala Penyu - Tiket Serahan Tingkap"
	},
	{
		"postcode" : ["89749"],
		"name" : "Beg Berkunci"
	},
	{
		"postcode" : ["89760"],
		"name" : "Kampung Lambidan"
	},
	{
		"postcode" : ["89767"],
		"name" : "Peti Surat"
	},
	{
		"postcode" : ["89768"],
		"name" : "Menumbok - Tiket Serahan Tingkap"
	},
	{
		"postcode" : ["89769"],
		"name" : "Beg Berkunci"
	},
	{
		"postcode" : ["89800"],
		"name" : "Beaufort"
	},
	{
		"postcode" : ["89807"],
		"name" : "Peti Surat"
	},
	{
		"postcode" : ["89808"],
		"name" : "Beaufort- Tiket Serahan Tingkap"
	},
	{
		"postcode" : ["89809"],
		"name" : "Beaufort - Karung Berkunci"
	},
	{
		"postcode" : ["89850"],
		"name" : "Kampung Melaman"
	},
	{
		"postcode" : ["89857"],
		"name" : "Peti Surat"
	},
	{
		"postcode" : ["89858"],
		"name" : "Sipitang - Tiket Serahan Tingkap"
	},
	{
		"postcode" : ["89859"],
		"name" : "Beg Berkunci"
	},
	{
		"postcode" : ["89900"],
		"name" : "Kampung Kemabong"
	},
	{
		"postcode" : ["89907"],
		"name" : "Peti Surat"
	},
	{
		"postcode" : ["89908"],
		"name" : "Tenom - Tiket Serahan Tingkap"
	},
	{
		"postcode" : ["89909"],
		"name" : "Beg Berkunci"
	},
	{
		"postcode" : ["89950"],
		"name" : "Nabawan"
	},
	{
		"postcode" : ["89957"],
		"name" : "Peti Surat"
	},
	{
		"postcode" : ["89958"],
		"name" : "Nabawan - Tiket Serahan Tingkap"
	},
	{
		"postcode" : ["89959"],
		"name" : "Beg Berkunci"
	},
	{
		"postcode" : ["90000"],
		"name" : "Bandar Laila"
	},
	{
		"postcode" : ["90009"],
		"name" : "Beg Berkunci"
	},
	{
		"postcode" : ["90100"],
		"name" : "Beluran"
	},
	{
		"postcode" : ["90107"],
		"name" : "Peti Surat"
	},
	{
		"postcode" : ["90109"],
		"name" : "Beg Berkunci"
	},
	{
		"postcode" : ["90200"],
		"name" : "Kota Kinabatangan"
	},
	{
		"postcode" : ["90300"],
		"name" : "Jalan Utara (Batu 1 1/2)"
	},
	{
		"postcode" : ["90307"],
		"name" : "Peti Surat - 1- 200 Batu 1 1/2 Jalan Utara"
	},
	{
		"postcode" : ["90400"],
		"name" : "Pamol"
	},
	{
		"postcode" : ["90700"],
		"name" : "Peti Surat 1 - 60"
	},
	{
		"postcode" : ["90701"],
		"name" : "Peti Surat 61 - 160"
	},
	{
		"postcode" : ["90702"],
		"name" : "Peti Surat 161 - 260"
	},
	{
		"postcode" : ["90703"],
		"name" : "Peti Surat 261 - 340"
	},
	{
		"postcode" : ["90704"],
		"name" : "Peti Surat 341 - 430"
	},
	{
		"postcode" : ["90705"],
		"name" : "Peti Surat 431 - 520"
	},
	{
		"postcode" : ["90706"],
		"name" : "Peti Surat 521 - 600"
	},
	{
		"postcode" : ["90707"],
		"name" : "Peti Surat 601 - 700"
	},
	{
		"postcode" : ["90708"],
		"name" : "Peti Surat 701 - 800"
	},
	{
		"postcode" : ["90709"],
		"name" : "Peti Surat 801 - 880"
	},
	{
		"postcode" : ["90711"],
		"name" : "Peti Surat 801 - 1080"
	},
	{
		"postcode" : ["90712"],
		"name" : "Peti Surat 1081 - 1160"
	},
	{
		"postcode" : ["90713"],
		"name" : "Peti Surat 1161 - 1260"
	},
	{
		"postcode" : ["90714"],
		"name" : "Peti Surat 1261 - 1360"
	},
	{
		"postcode" : ["90715"],
		"name" : "Peti Surat 1361 - 1440"
	},
	{
		"postcode" : ["90716"],
		"name" : "Peti Surat 1441 - 1530"
	},
	{
		"postcode" : ["90717"],
		"name" : "Peti Surat 1531 - 1620"
	},
	{
		"postcode" : ["90718"],
		"name" : "Peti Surat 1621 - 1700"
	},
	{
		"postcode" : ["90719"],
		"name" : "Peti Surat 1701 - 1780"
	},
	{
		"postcode" : ["90720"],
		"name" : "Peti Surat 1781 - 1860"
	},
	{
		"postcode" : ["90721"],
		"name" : "Peti Surat 1861 - 1940"
	},
	{
		"postcode" : ["90722"],
		"name" : "Peti Surat 1941 - 2020"
	},
	{
		"postcode" : ["90723"],
		"name" : "Peti Surat 2021 -2100"
	},
	{
		"postcode" : ["90724"],
		"name" : "Peti Surat 2101 - 2190"
	},
	{
		"postcode" : ["90725"],
		"name" : "Peti Surat 2191 - 2280"
	},
	{
		"postcode" : ["90726"],
		"name" : "Peti Surat 2281 - 2360"
	},
	{
		"postcode" : ["90727"],
		"name" : "Peti Surat 2361 - 2460"
	},
	{
		"postcode" : ["90728"],
		"name" : "Peti Surat 2461 - 2560"
	},
	{
		"postcode" : ["90729"],
		"name" : "Peti Surat 2561 - 2640"
	},
	{
		"postcode" : ["90730"],
		"name" : "Peti Surat 2641 - 2740"
	},
	{
		"postcode" : ["90731"],
		"name" : "Peti Surat 2741 - 2840"
	},
	{
		"postcode" : ["90732"],
		"name" : "Peti Surat 2841 - 2920"
	},
	{
		"postcode" : ["90733"],
		"name" : "Peti Surat 2921 - 3020"
	},
	{
		"postcode" : ["90734"],
		"name" : "Peti Surat 3021 - 3120"
	},
	{
		"postcode" : ["90735"],
		"name" : "Peti Surat 3121 - 3200"
	},
	{
		"postcode" : ["90736"],
		"name" : "Peti Surat 3201 - 3290"
	},
	{
		"postcode" : ["90737"],
		"name" : "Peti Surat 3291 - 3380"
	},
	{
		"postcode" : ["90738"],
		"name" : "Peti Surat 3381 - 3460"
	},
	{
		"postcode" : ["90739"],
		"name" : "Peti Surat 3461 - 3560"
	},
	{
		"postcode" : ["90740"],
		"name" : "Peti Surat 3561 - 3660"
	},
	{
		"postcode" : ["90741"],
		"name" : "Peti Surat 3661 - 3720"
	},
	{
		"postcode" : ["91000"],
		"name" : "Ambar Park"
	},
	{
		"postcode" : ["91007"],
		"name" : "Peti Surat 1 - 500"
	},
	{
		"postcode" : ["91008"],
		"name" : "Peti Surat 500 & Ke Atas"
	},
	{
		"postcode" : ["91009"],
		"name" : "Beg Berkunci"
	},
	{
		"postcode" : ["91010"],
		"name" : "Peti Surat 60001 - 60100"
	},
	{
		"postcode" : ["91011"],
		"name" : "Peti Surat 60101 - 60200"
	},
	{
		"postcode" : ["91012"],
		"name" : "Peti Surat 60201 - 60230"
	},
	{
		"postcode" : ["91013"],
		"name" : "Peti Surat 60301 - 60400"
	},
	{
		"postcode" : ["91014"],
		"name" : "Peti Surat 60401 - 60500"
	},
	{
		"postcode" : ["91015"],
		"name" : "Peti Surat 60501 - 60600"
	},
	{
		"postcode" : ["91016"],
		"name" : "Peti Surat 60601 - 60700"
	},
	{
		"postcode" : ["91017"],
		"name" : "Peti Surat 60701 - 60800"
	},
	{
		"postcode" : ["91018"],
		"name" : "Peti Surat 60801 - 60900"
	},
	{
		"postcode" : ["91019"],
		"name" : "Peti Surat 60901 - 61000"
	},
	{
		"postcode" : ["91020"],
		"name" : "Peti Surat 61001 - 61100"
	},
	{
		"postcode" : ["91021"],
		"name" : "Peti Surat 61101 - 61200"
	},
	{
		"postcode" : ["91022"],
		"name" : "Peti Surat 61201 - 61300"
	},
	{
		"postcode" : ["91023"],
		"name" : "Peti Surat 61301 - 61400"
	},
	{
		"postcode" : ["91024"],
		"name" : "Peti Surat 61401 - 61500"
	},
	{
		"postcode" : ["91025"],
		"name" : "Peti Surat 61501 - 61600"
	},
	{
		"postcode" : ["91026"],
		"name" : "Peti Surat 61601 - 61700"
	},
	{
		"postcode" : ["91027"],
		"name" : "Peti Surat 61701 - 61800"
	},
	{
		"postcode" : ["91028"],
		"name" : "Peti Surat 61801 - 61900"
	},
	{
		"postcode" : ["91029"],
		"name" : "Peti Surat 61901 - 62000"
	},
	{
		"postcode" : ["91030"],
		"name" : "Peti Surat 62001 - 62100"
	},
	{
		"postcode" : ["91031"],
		"name" : "Peti Surat 62101 - 62200"
	},
	{
		"postcode" : ["91032"],
		"name" : "Peti Surat 62201 - 62300"
	},
	{
		"postcode" : ["91033"],
		"name" : "Peti Surat 62301 - 62400"
	},
	{
		"postcode" : ["91034"],
		"name" : "Peti Surat 62401 - 62500"
	},
	{
		"postcode" : ["91035"],
		"name" : "Peti Surat 62501 - 62600"
	},
	{
		"postcode" : ["91100"],
		"name" : "Kampung Sapagaya"
	},
	{
		"postcode" : ["91109"],
		"name" : "Beg Berkunci"
	},
	{
		"postcode" : ["91110"],
		"name" : "Peti Surat 60001 - 60120"
	},
	{
		"postcode" : ["91111"],
		"name" : "Peti Surat 60121 - 60240"
	},
	{
		"postcode" : ["91112"],
		"name" : "Peti Surat 60241 - 60360"
	},
	{
		"postcode" : ["91113"],
		"name" : "Peti Surat 60361 - 60440"
	},
	{
		"postcode" : ["91114"],
		"name" : "Peti Surat 60441 - 60560"
	},
	{
		"postcode" : ["91115"],
		"name" : "Peti Surat 60561 - 60680"
	},
	{
		"postcode" : ["91116"],
		"name" : "Peti Surat 60681 - 60760"
	},
	{
		"postcode" : ["91117"],
		"name" : "Peti Surat 60761 - 60880"
	},
	{
		"postcode" : ["91118"],
		"name" : "Peti Surat 60881 - 61000"
	},
	{
		"postcode" : ["91119"],
		"name" : "Peti Surat 61001 - 61080"
	},
	{
		"postcode" : ["91120"],
		"name" : "Peti Surat 61081 - 61200"
	},
	{
		"postcode" : ["91121"],
		"name" : "Peti Surat 61201 - 61320"
	},
	{
		"postcode" : ["91122"],
		"name" : "Peti Surat 61321 - 61440"
	},
	{
		"postcode" : ["91123"],
		"name" : "Peti Surat 61441 - 61560"
	},
	{
		"postcode" : ["91124"],
		"name" : "Peti Surat 61561 - 61640"
	},
	{
		"postcode" : ["91125"],
		"name" : "Peti Surat 61641 - 61760"
	},
	{
		"postcode" : ["91126"],
		"name" : "Peti Surat 61761 - 61880"
	},
	{
		"postcode" : ["91127"],
		"name" : "Peti Surat 61881 - 61960"
	},
	{
		"postcode" : ["91128"],
		"name" : "Peti Surat 61961 - 62480"
	},
	{
		"postcode" : ["91150"],
		"name" : "Cenderawasih"
	},
	{
		"postcode" : ["91200"],
		"name" : "Kunak"
	},
	{
		"postcode" : ["91207"],
		"name" : "Peti Surat"
	},
	{
		"postcode" : ["91209"],
		"name" : "Beg Berkunci"
	},
	{
		"postcode" : ["91300"],
		"name" : "Semporna"
	},
	{
		"postcode" : ["91307"],
		"name" : "Peti Surat 1 - 80"
	},
	{
		"postcode" : ["91308"],
		"name" : "Peti Surat 81 & Ke Atas"
	},
	{
		"postcode" : ["91309"],
		"name" : "Beg Berkunci"
	}
]
